,StopAreaCode,Name_lang_en,AdministrativeAreaRef,StopAreaType,GridType,Easting,Northing,Longitude,Latitude,ParentStopAreaRef,county
30,821G000014,Carlow Train Station,821,GPBS,ITM,672559.0,677188.0,-6.922990542000001,52.84073973,,Carlow County
47,821GIR0001,Bagnelstown Train Station,821,GRLS,ITM,670794.0,661404.0,-6.952593843,52.6991348,,Carlow County
48,821GA00006,Bagnelstown Train Station,821,GPBS,ITM,670794.0,661408.0,-6.952592983,52.69917074,821GIR0001,Carlow County
49,821GA00007,Bagnelstown Train Station,821,GPBS,ITM,670792.0,661402.0,-6.952623858,52.69911709,821GIR0001,Carlow County
50,821GA00008,Bagnelstown Train Station,821,GPBS,ITM,670768.0,661385.0,-6.952982532999999,52.69896745,821GIR0001,Carlow County
51,821GA00009,Bagnelstown Train Station,821,GPBS,ITM,670755.0,661387.0,-6.953174402999999,52.69898712,821GIR0001,Carlow County
52,821GA00010,Bagnelstown Train Station,821,GPBS,ITM,670766.0,661377.0,-6.9530138379999995,52.69889582,821GIR0001,Carlow County
53,821GIR0002,Carlow Train Station,821,GRLS,ITM,672589.0,677202.0,-6.922542217,52.84086149,,Carlow County
54,821GA00001,Carlow Train Station,821,GPBS,ITM,672587.0,677193.0,-6.9225739,52.84078089,821GIR0002,Carlow County
55,821GA00002,Carlow Train Station,821,GPBS,ITM,672590.0,677202.0,-6.922527377000001,52.84086136,821GIR0002,Carlow County
56,821GA00003,Carlow Train Station,821,GPBS,ITM,672591.0,677174.0,-6.922518765,52.84060961,821GIR0002,Carlow County
57,821GA00004,Carlow Train Station,821,GPBS,ITM,672603.0,677182.0,-6.922338901,52.84067988,821GIR0002,Carlow County
58,821GA00005,Carlow Train Station,821,GPBS,ITM,672609.0,677189.0,-6.922248302000001,52.84074198,821GIR0002,Carlow County
62,822G000007,Connolly Train Station,822,GRLS,ITM,716531.0,734874.0,-6.249659062999999,53.35122994,822GIR0025,Dublin City
63,822GA00464,Connolly Train Station,822,GPBS,ITM,716512.0,734866.0,-6.249947248,53.35116227,822G000007,Dublin City
64,822GA00465,Connolly Train Station,822,GPBS,ITM,716560.0,734866.0,-6.24922664,53.3511517,822G000007,Dublin City
65,822GA00166,Connolly Train Station,822,GPBS,ITM,716530.0,734874.0,-6.249674075,53.35123017,822G000007,Dublin City
66,822GA00167,Connolly Train Station,822,GPBS,ITM,716699.0,735015.0,-6.247084956,53.35245948,822G000007,Dublin City
67,822GA00168,Connolly Train Station,822,GPBS,ITM,716696.0,735022.0,-6.247127415,53.35252302,822G000007,Dublin City
68,822GA00169,Connolly Train Station,822,GPBS,ITM,716686.0,735029.0,-6.247274966,53.35258811,822G000007,Dublin City
69,822GA00170,Connolly Train Station,822,GPBS,ITM,716680.0,735037.0,-6.247362096,53.35266129,822G000007,Dublin City
70,822GA00171,Connolly Train Station,822,GPBS,ITM,716712.0,735076.0,-6.2468672960000005,53.35300456,822G000007,Dublin City
71,822GA00172,Connolly Train Station,822,GPBS,ITM,716717.0,735094.0,-6.246785592999999,53.35316514,822G000007,Dublin City
72,822GA00173,Connolly Train Station,822,GPBS,ITM,716714.0,735097.0,-6.246829527,53.35319275,822G000007,Dublin City
73,822GA00175,Connolly Train Station,822,GPBS,ITM,716700.0,735059.0,-6.247053723,53.35285450000001,822G000007,Dublin City
74,822GA00466,Connolly Train Station,822,GPBS,ITM,716512.0,734922.0,-6.249926639,53.35166529999999,822G000007,Dublin City
226,822G002001,Clongriffin Train Station Park And Ride,822,GPBS,ITM,722965.0,740793.0,-6.15076913,53.40293954,,Dublin City
391,822G002177,Outside Train Station,822,GPBS,ITM,718487.0,732289.0,-6.2212613370000005,53.32757553,822GIR0028,Dublin City
392,822G002178,Outside Train Station,822,GPBS,ITM,716543.0,733993.0,-6.249803141,53.34331352,822GIR0134,Dublin City
847,822G002839,Outside Train Station,822,GPBS,ITM,717265.0,734799.0,-6.2386675689999995,53.35039408,822GIR0137,Dublin City
1075,822G003078,Bus Stop at Train Station,822,GPBS,ITM,716241.0,734449.0,-6.254168781000001,53.34747607,822GIR0025,Dublin City
1111,822G003115,Near Train Station,822,GPBS,ITM,713096.0,737007.0,-6.300466422,53.37113594,,Dublin City
1140,822G003145,Outside Train Station,822,GPBS,ITM,720336.0,738103.0,-6.1913088510000005,53.37938252,822GIR0131,Dublin City
1265,822G003272,Outside Train Station,822,GPBS,ITM,721376.0,738335.0,-6.175596851,53.38122864,822GIR0035,Dublin City
1357,822G003366,Outside Train Station,822,GPBS,ITM,715923.0,736157.0,-6.258316881,53.36288837,822G003502,Dublin City
1490,822G003502,Near Train Station,822,GPBS,ITM,715988.0,736273.0,-6.257298256,53.36391612,,Dublin City
1638,822G003871,Outside Heuston Train Station,822,GPBS,ITM,713741.0,734297.0,-6.2917525439999995,53.3466539,822G003851,Dublin City
1639,822GA00446,Outside Heuston Train Station,822,GPBS,ITM,713590.0,734299.0,-6.294018555,53.34670429999999,822G003871,Dublin City
1640,822GA00447,Outside Heuston Train Station,822,GPBS,ITM,713716.0,734309.0,-6.292123521000001,53.34676707,822G003871,Dublin City
1641,822GA00448,Outside Heuston Train Station,822,GPBS,ITM,713662.0,734231.0,-6.292962136,53.346078000000006,822G003871,Dublin City
1642,822GA00445,Outside Heuston Train Station,822,GPBS,ITM,713551.0,734217.0,-6.294633404,53.34597607,822G003871,Dublin City
1652,822G003881,Killester Train Station,822,GRLS,ITM,719495.0,737360.0,-6.204223388,53.37289934,822G003327,Dublin City
1653,822GA00001,Killester Train Station,822,GPBS,ITM,719502.0,737362.0,-6.204117492000001,53.37291573,822G003881,Dublin City
1654,822GA00002,Killester Train Station,822,GPBS,ITM,719490.0,737358.0,-6.2042992429999995,53.37288251,822G003881,Dublin City
1655,822GA00003,Killester Train Station,822,GPBS,ITM,719436.0,737352.0,-6.205112587,53.37284081,822G003881,Dublin City
1656,822GA00004,Killester Train Station,822,GPBS,ITM,719447.0,737338.0,-6.204952657000001,53.37271257,822G003881,Dublin City
1769,822GIR0013,Ashtown Train Station,822,GRLS,ITM,710965.0,737420.0,-6.33232975,53.37529748,,Dublin City
1770,822GA00463,Ashtown Train Station,822,GPBS,ITM,710939.0,737421.0,-6.332719967,53.37531192,822GIR0013,Dublin City
1771,822GA00049,Ashtown Train Station,822,GPBS,ITM,710937.0,737436.0,-6.3327447470000005,53.37544709,822GIR0013,Dublin City
1772,822GA00050,Ashtown Train Station,822,GPBS,ITM,710950.0,737420.0,-6.3325550779999995,53.37530063,822GIR0013,Dublin City
1773,822GA00051,Ashtown Train Station,822,GPBS,ITM,710945.0,737426.0,-6.332628081,53.37535558,822GIR0013,Dublin City
1774,822GA00052,Ashtown Train Station,822,GPBS,ITM,710951.0,737437.0,-6.332534089,53.37545313,822GIR0013,Dublin City
1775,822GA00053,Ashtown Train Station,822,GPBS,ITM,710965.0,737420.0,-6.33232975,53.37529748,822GIR0013,Dublin City
1776,822GIR0025,Tara Street Train Station,822,GRLS,ITM,716212.0,734444.0,-6.254605947000001,53.34743752,,Dublin City
1777,822GA00063,Tara Street Train Station,822,GPBS,ITM,716205.0,734425.0,-6.2547179989999995,53.34726839,822GIR0025,Dublin City
1778,822GA00064,Tara Street Train Station,822,GPBS,ITM,716208.0,734408.0,-6.254679203999999,53.34711502,822GIR0025,Dublin City
1779,822GA00065,Tara Street Train Station,822,GPBS,ITM,716232.0,734404.0,-6.254320401,53.34707382,822GIR0025,Dublin City
1780,822GA00066,Tara Street Train Station,822,GPBS,ITM,716238.0,734409.0,-6.254228498,53.34711742,822GIR0025,Dublin City
1781,822GA00067,Tara Street Train Station,822,GPBS,ITM,716228.0,734413.0,-6.254377142999999,53.34715554,822GIR0025,Dublin City
1782,822GIR0026,Broombridge Train Station,822,GRLS,ITM,713164.0,737183.0,-6.299382068,53.37270239,,Dublin City
1783,822GA00226,Broombridge Train Station,822,GPBS,ITM,713163.0,737191.0,-6.299394225,53.37277447,822GIR0026,Dublin City
1784,822GA00227,Broombridge Train Station,822,GPBS,ITM,713129.0,737204.0,-6.299900277000001,53.37289852,822GIR0026,Dublin City
1785,822GA00228,Broombridge Train Station,822,GPBS,ITM,713149.0,737182.0,-6.299607735,53.37269662,822GIR0026,Dublin City
1786,822GA00229,Broombridge Train Station,822,GPBS,ITM,713183.0,737177.0,-6.299098823,53.37264442,822GIR0026,Dublin City
1787,822GIR0027,Drumcondra Train Station,822,GRLS,ITM,715908.0,736182.0,-6.258532975,53.36311623,,Dublin City
1788,822GA00191,Drumcondra Train Station,822,GPBS,ITM,715922.0,736178.0,-6.258324204,53.36307723,822GIR0027,Dublin City
1789,822GA00193,Drumcondra Train Station,822,GPBS,ITM,715906.0,736185.0,-6.25856191,53.36314362,822GIR0027,Dublin City
1790,822GA00194,Drumcondra Train Station,822,GPBS,ITM,715884.0,736181.0,-6.258893747999999,53.36311251,822GIR0027,Dublin City
1791,822GA00195,Drumcondra Train Station,822,GPBS,ITM,715879.0,736172.0,-6.25897213,53.36303276,822GIR0027,Dublin City
1792,822GA00196,Drumcondra Train Station,822,GPBS,ITM,715891.0,736173.0,-6.25879156,53.36303911,822GIR0027,Dublin City
1793,822GIR0028,Sandymount Train Station,822,GRLS,ITM,718513.0,732334.0,-6.220854407000001,53.32797393,,Dublin City
1794,822GA00096,Sandymount Train Station,822,GPBS,ITM,718519.0,732322.0,-6.220768867,53.32786479999999,822GIR0028,Dublin City
1795,822GA00097,Sandymount Train Station,822,GPBS,ITM,718502.0,732312.0,-6.221027678,53.32777878,822GIR0028,Dublin City
1796,822GA00098,Sandymount Train Station,822,GPBS,ITM,718511.0,732332.0,-6.220885163999999,53.32795641,822GIR0028,Dublin City
1797,822GA00099,Sandymount Train Station,822,GPBS,ITM,718488.0,732333.0,-6.221229889,53.32797054,822GIR0028,Dublin City
1798,822GA00100,Sandymount Train Station,822,GPBS,ITM,718502.0,732332.0,-6.221020202,53.32795843,822GIR0028,Dublin City
1799,822GA00441,Sandymount Train Station,822,GPBS,ITM,718512.0,732332.0,-6.2208701589999995,53.32795619,822GIR0028,Dublin City
1800,822GIR0032,Clontarf Road Train Station,822,GRLS,ITM,718024.0,736224.0,-6.226741877,53.36302555,822G002235,Dublin City
1801,822GA00005,Clontarf Road Train Station,822,GPBS,ITM,718008.0,736224.0,-6.226982143,53.36302912,822GIR0032,Dublin City
1802,822GA00006,Clontarf Road Train Station,822,GPBS,ITM,718001.0,736234.0,-6.22708353,53.363120499999994,822GIR0032,Dublin City
1803,822GA00007,Clontarf Road Train Station,822,GPBS,ITM,717984.0,736219.0,-6.2273444079999996,53.36298956,822GIR0032,Dublin City
1804,822GA00008,Clontarf Road Train Station,822,GPBS,ITM,717991.0,736215.0,-6.227240782999999,53.36295207,822GIR0032,Dublin City
1805,822GIR0034,Sydney Parade Train Station,822,GRLS,ITM,719148.0,731541.0,-6.211624669,53.32070826,,Dublin City
1806,822GA00073,Sydney Parade Train Station,822,GPBS,ITM,719135.0,731560.0,-6.211812554,53.32088185,822GIR0034,Dublin City
1807,822GA00076,Sydney Parade Train Station,822,GPBS,ITM,719147.0,731574.0,-6.211627274,53.32100491,822GIR0034,Dublin City
1808,822GA00077,Sydney Parade Train Station,822,GPBS,ITM,719148.0,731542.0,-6.211624294,53.32071724,822GIR0034,Dublin City
1809,822GA00078,Sydney Parade Train Station,822,GPBS,ITM,719161.0,731540.0,-6.211430022999999,53.32069635,822GIR0034,Dublin City
1810,822GA00079,Sydney Parade Train Station,822,GPBS,ITM,719156.0,731539.0,-6.211505407000001,53.32068849,822GIR0034,Dublin City
1811,822GA00080,Sydney Parade Train Station,822,GPBS,ITM,719162.0,731546.0,-6.211412767000001,53.32075002,822GIR0034,Dublin City
1812,822GIR0035,Raheny Train Station,822,GRLS,ITM,721352.0,738358.0,-6.1759485629999995,53.38144074,,Dublin City
1813,822GA00013,Raheny Train Station,822,GPBS,ITM,721360.0,738368.0,-6.175824541,53.38152873,822GIR0035,Dublin City
1814,822GA00014,Raheny Train Station,822,GPBS,ITM,721344.0,738357.0,-6.176069128,53.38143359,822GIR0035,Dublin City
1815,822GA00015,Raheny Train Station,822,GPBS,ITM,721326.0,738364.0,-6.17633685,53.3815006,822GIR0035,Dublin City
1816,822GA00016,Raheny Train Station,822,GPBS,ITM,721324.0,738381.0,-6.176360369,53.38165376,822GIR0035,Dublin City
1817,822GIR0129,Park West and Cherry Orchard Train Station,822,GRLS,ITM,707988.0,732757.0,-6.378641409,53.33402481,,Dublin City
1818,822GA00135,Park West and Cherry Orchard Train Station,822,GPBS,ITM,707997.0,732757.0,-6.37850634,53.33402298,822GIR0129,Dublin City
1819,822GA00136,Park West and Cherry Orchard Train Station,822,GPBS,ITM,707986.0,732757.0,-6.378671425,53.33402522,822GIR0129,Dublin City
1820,822GA00137,Park West and Cherry Orchard Train Station,822,GPBS,ITM,707950.0,732739.0,-6.379217832,53.33387086,822GIR0129,Dublin City
1821,822GA00138,Park West and Cherry Orchard Train Station,822,GPBS,ITM,707954.0,732748.0,-6.379154735,53.33395089,822GIR0129,Dublin City
1822,822GA00139,Park West and Cherry Orchard Train Station,822,GPBS,ITM,707954.0,732757.0,-6.37915167,53.33403174,822GIR0129,Dublin City
1823,822GA00140,Park West and Cherry Orchard Train Station,822,GPBS,ITM,707950.0,732765.0,-6.379208975,53.33410443,822GIR0129,Dublin City
1824,822GIR0131,Harmonstown Train Station,822,GRLS,ITM,720333.0,738027.0,-6.191382852,53.37870054,,Dublin City
1825,822GA00009,Harmonstown Train Station,822,GPBS,ITM,720302.0,738008.0,-6.191855762,53.37853693,822GIR0131,Dublin City
1826,822GA00010,Harmonstown Train Station,822,GPBS,ITM,720292.0,738007.0,-6.192006361000001,53.37853023,822GIR0131,Dublin City
1827,822GA00011,Harmonstown Train Station,822,GPBS,ITM,720271.0,738004.0,-6.192322961,53.37850806,822GIR0131,Dublin City
1828,822GA00012,Harmonstown Train Station,822,GPBS,ITM,720280.0,737995.0,-6.192191189,53.37842517,822GIR0131,Dublin City
1829,822GIR0132,Heuston Train Station,822,GRLS,ITM,713662.0,734274.0,-6.292946702999999,53.34646427,,Dublin City
1830,822GA00252,Heuston Train Station,822,GPBS,ITM,713720.0,734286.0,-6.292071733999999,53.34655961,822GIR0132,Dublin City
1831,822GA00253,Heuston Train Station,822,GPBS,ITM,713657.0,734309.0,-6.293009197999999,53.34677975,822GIR0132,Dublin City
1832,822GA00254,Heuston Train Station,822,GPBS,ITM,713634.0,734233.0,-6.2933817329999995,53.34610198,822GIR0132,Dublin City
1833,822GA00255,Heuston Train Station,822,GPBS,ITM,713664.0,734274.0,-6.29291668,53.34646384,822GIR0132,Dublin City
1834,822GA00256,Heuston Train Station,822,GPBS,ITM,713396.0,734228.0,-6.296956206,53.34610812,822GIR0132,Dublin City
1835,822GA00257,Heuston Train Station,822,GPBS,ITM,713454.0,734229.0,-6.296085194,53.34610467,822GIR0132,Dublin City
1836,822GA00258,Heuston Train Station,822,GPBS,ITM,713464.0,734248.0,-6.2959282739999995,53.346273200000006,822GIR0132,Dublin City
1837,822GA00259,Heuston Train Station,822,GPBS,ITM,713463.0,734254.0,-6.295941136000001,53.34632731,822GIR0132,Dublin City
1838,822GA00260,Heuston Train Station,822,GPBS,ITM,713461.0,734266.0,-6.295966859,53.34643554,822GIR0132,Dublin City
1839,822GA00261,Heuston Train Station,822,GPBS,ITM,713460.0,734269.0,-6.295980796,53.3464627,822GIR0132,Dublin City
1840,822GA00262,Heuston Train Station,822,GPBS,ITM,713457.0,734276.0,-6.296023322000001,53.34652623,822GIR0132,Dublin City
1841,822GA00263,Heuston Train Station,822,GPBS,ITM,713457.0,734280.0,-6.2960218889999995,53.34656216,822GIR0132,Dublin City
1842,822GA00305,Heuston Train Station,822,GPBS,ITM,713491.0,734285.0,-6.295509707999999,53.34659978,822GIR0132,Dublin City
1843,822GIR0133,Lansdowne Road Train Station,822,GRLS,ITM,717947.0,732970.0,-6.229110225,53.33381326,,Dublin City
1844,822GA00236,Lansdowne Road Train Station,822,GPBS,ITM,717936.0,732992.0,-6.229267107999999,53.33401333,822GIR0133,Dublin City
1845,822GA00237,Lansdowne Road Train Station,822,GPBS,ITM,717962.0,732999.0,-6.2288743339999995,53.33407042,822GIR0133,Dublin City
1846,822GA00238,Lansdowne Road Train Station,822,GPBS,ITM,717982.0,732999.0,-6.228574204,53.33406596,822GIR0133,Dublin City
1847,822GA00239,Lansdowne Road Train Station,822,GPBS,ITM,717946.0,732970.0,-6.229125231,53.33381349,822GIR0133,Dublin City
1848,822GA00240,Lansdowne Road Train Station,822,GPBS,ITM,717970.0,732963.0,-6.228767682999999,53.33374526,822GIR0133,Dublin City
1849,822GA00241,Lansdowne Road Train Station,822,GPBS,ITM,717978.0,732969.0,-6.228645397999999,53.33379737,822GIR0133,Dublin City
1850,822GIR0134,Pearse Train Station,822,GRLS,ITM,716572.0,733994.0,-6.249367485,53.34331611,,Dublin City
1851,822GA00201,Pearse Train Station,822,GPBS,ITM,716546.0,734003.0,-6.2497544320000005,53.34340269,822GIR0134,Dublin City
1852,822GA00202,Pearse Train Station,822,GPBS,ITM,716571.0,733994.0,-6.249382495,53.34331633,822GIR0134,Dublin City
1853,822GA00203,Pearse Train Station,822,GPBS,ITM,716589.0,734006.0,-6.2491079,53.34342016,822GIR0134,Dublin City
1854,822GA00204,Pearse Train Station,822,GPBS,ITM,716583.0,734013.0,-6.249195382999999,53.34348436,822GIR0134,Dublin City
1855,822GA00205,Pearse Train Station,822,GPBS,ITM,716581.0,734026.0,-6.249220618,53.34360158,822GIR0134,Dublin City
1856,822GIR0135,Grand Canal Dock Train Station,822,GRLS,ITM,717335.0,733619.0,-6.238053871,53.33977901,,Dublin City
1857,822GA00247,Grand Canal Dock Train Station,822,GPBS,ITM,717422.0,733582.0,-6.236761838,53.33942736,822GIR0135,Dublin City
1858,822GA00248,Grand Canal Dock Train Station,822,GPBS,ITM,717386.0,733591.0,-6.237298807999999,53.33951619,822GIR0135,Dublin City
1859,822GA00249,Grand Canal Dock Train Station,822,GPBS,ITM,717342.0,733598.0,-6.2379565889999995,53.33958882,822GIR0135,Dublin City
1860,822GA00250,Grand Canal Dock Train Station,822,GPBS,ITM,717351.0,733606.0,-6.237818549,53.33965869,822GIR0135,Dublin City
1861,822GA00251,Grand Canal Dock Train Station,822,GPBS,ITM,717357.0,733609.0,-6.237727386,53.33968431,822GIR0135,Dublin City
1862,822GA00306,Grand Canal Dock Train Station,822,GPBS,ITM,717394.0,733579.0,-6.237183186,53.33940662,822GIR0135,Dublin City
1863,822GA00328,Grand Canal Dock Train Station,822,GPBS,ITM,717344.0,733611.0,-6.2379217570000005,53.33970515,822GIR0135,Dublin City
1864,822GIR0137,Docklands Train Station,822,GRLS,ITM,717219.0,734837.0,-6.239344067999999,53.35074562,,Dublin City
1865,822GA00182,Docklands Train Station,822,GPBS,ITM,717212.0,734821.0,-6.239455078,53.35060345,822GIR0137,Dublin City
1866,822GA00183,Docklands Train Station,822,GPBS,ITM,717218.0,734835.0,-6.23935982,53.35072787,822GIR0137,Dublin City
1867,822GA00184,Docklands Train Station,822,GPBS,ITM,717213.0,734847.0,-6.23943044,53.35083677,822GIR0137,Dublin City
1868,822GA00185,Docklands Train Station,822,GPBS,ITM,717224.0,734849.0,-6.239264562000001,53.35085229999999,822GIR0137,Dublin City
1869,822GA00307,Docklands Train Station,822,GPBS,ITM,717203.0,734799.0,-6.239598334,53.35040782,822GIR0137,Dublin City
1870,822GIR0139,Clongriffin Train Station,822,GRLS,ITM,723068.0,740747.0,-6.149238969,53.40250237,,Dublin City
1871,822GA00147,Clongriffin Train Station,822,GPBS,ITM,723084.0,740745.0,-6.14899927,53.40248068,822GIR0139,Fingal
1872,822GA00148,Clongriffin Train Station,822,GPBS,,,,,,822GIR0139,Cavan County
1873,822GA00149,Clongriffin Train Station,822,GPBS,ITM,723085.0,740803.0,-6.148961622000001,53.40300141,822GIR0139,Fingal
1874,822GA00150,Clongriffin Train Station,822,GPBS,ITM,723093.0,740800.0,-6.148842551,53.402972600000005,822GIR0139,Fingal
1875,822GA00151,Clongriffin Train Station,822,GPBS,ITM,723078.0,740802.0,-6.149067222999999,53.40299406,822GIR0139,Dublin City
1876,822GIR0141,Kilbarrack Train Station,822,GRLS,ITM,722338.0,739037.0,-6.160873362999999,53.38731238,,Dublin City
1877,822GA00017,Kilbarrack Train Station,822,GPBS,ITM,722340.0,739047.0,-6.160839441,53.38740174,822GIR0141,Dublin City
1878,822GA00018,Kilbarrack Train Station,822,GPBS,ITM,722328.0,739059.0,-6.161015091,53.387512300000004,822GIR0141,Dublin City
1879,822GA00019,Kilbarrack Train Station,822,GPBS,ITM,722304.0,739056.0,-6.1613768460000005,53.38749091,822GIR0141,Dublin City
1880,822GA00020,Kilbarrack Train Station,822,GPBS,ITM,722318.0,739047.0,-6.161169984,53.38740683,822GIR0141,Dublin City
1881,822GA00029,Kilbarrack Train Station,822,GPBS,ITM,722332.0,739096.0,-6.160940664,53.38784372,822GIR0141,Dublin City
1979,823G000379,Taxi Rank at Train Station,823,GPBS,ITM,706150.0,732587.0,-6.406282732,53.33286932,,South Dublin
2094,823G001311,Outside Train Station,823,GPBS,ITM,702031.0,732866.0,-6.468010121,53.33618558,823GIR0128,South Dublin
2616,823GIR0036,Clondalkin Fonthill Train Station,823,GRLS,ITM,706150.0,732650.0,-6.4062616320000005,53.33343528,,South Dublin
2617,823GA00142,Clondalkin Fonthill Train Station,823,GPBS,ITM,706123.0,732627.0,-6.40667454,53.33323407,823GIR0036,South Dublin
2618,823GA00410,Clondalkin Fonthill Train Station,823,GPBS,ITM,706189.0,732636.0,-6.405681024,53.33330169,823GIR0036,South Dublin
2619,823GA00143,Clondalkin Fonthill Train Station,823,GPBS,ITM,706184.0,732650.0,-6.405751372,53.33342846,823GIR0036,South Dublin
2620,823GA00144,Clondalkin Fonthill Train Station,823,GPBS,ITM,706184.0,732658.0,-6.405748691,53.33350033,823GIR0036,South Dublin
2621,823GA00145,Clondalkin Fonthill Train Station,823,GPBS,ITM,706184.0,732635.0,-6.405756397,53.33329371,823GIR0036,South Dublin
2622,823GA00146,Clondalkin Fonthill Train Station,823,GPBS,ITM,706147.0,732651.0,-6.40630632,53.33344487,823GIR0036,South Dublin
2623,823GIR0128,Adamstown Train Station,823,GRLS,ITM,701940.0,732854.0,-6.469379807,53.3360953,,South Dublin
2624,823GA00041,Adamstown Train Station,823,GPBS,ITM,701950.0,732880.0,-6.469221351,53.33632695,823GIR0128,South Dublin
2625,823GA00042,Adamstown Train Station,823,GPBS,ITM,701938.0,732858.0,-6.469408538,53.33613162,823GIR0128,South Dublin
2626,823GA00043,Adamstown Train Station,823,GPBS,ITM,701971.0,732829.0,-6.468922572,53.33586474,823GIR0128,South Dublin
2627,823GA00044,Adamstown Train Station,823,GPBS,ITM,701937.0,732852.0,-6.469425477000001,53.33607791,823GIR0128,South Dublin
2628,823GA00045,Adamstown Train Station,823,GPBS,ITM,701979.0,732844.0,-6.468797672999999,53.33599795,823GIR0128,South Dublin
2629,823GA00046,Adamstown Train Station,823,GPBS,ITM,702057.0,732848.0,-6.467625683,53.33601886,823GIR0128,South Dublin
2630,823GA00047,Adamstown Train Station,823,GPBS,ITM,701965.0,732855.0,-6.469004259,53.33609947,823GIR0128,South Dublin
2631,823GA00048,Adamstown Train Station,823,GPBS,ITM,701972.0,732870.0,-6.468894369,53.33623288,823GIR0128,South Dublin
2636,824G000030,Hansfield Train Station,824,GRLS,ITM,703667.0,738544.0,-6.441595136,53.38687651,,Fingal
2637,824GA00176,Hansfield Train Station,824,GPBS,ITM,703668.0,738545.0,-6.441579781000001,53.3868853,824G000030,Fingal
2638,824GA00164,Hansfield Train Station,824,GPBS,ITM,703686.0,738554.0,-6.441306347,53.38696262,824G000030,Fingal
2639,824GA00165,Hansfield Train Station,824,GPBS,ITM,703662.0,738541.0,-6.441671254,53.38685055,824G000030,Fingal
2669,824G000409,Rush And Lusk Train Station,824,GPBS,ITM,723076.0,753880.0,-6.143979546000001,53.52046172,,Fingal
2678,824G000447,Outside Train Station,824,GPBS,ITM,722596.0,739375.0,-6.156865829,53.39028857,824G003874,Fingal
2739,824G000588,Outside Train Station,824,GPBS,ITM,704971.0,738203.0,-6.422113767000001,53.38355573,824GIR0041,Fingal
2769,824G000618,Outside Train Station,824,GPBS,ITM,710067.0,737592.0,-6.345759527999999,53.37703031,824GIR0015,Fingal
2965,824G001000,Outside Train Station,824,GPBS,ITM,704768.0,738224.0,-6.425156961,53.38378466,824G000987,Fingal
3047,824G001174,Bus Stop at Train Station,824,GPBS,ITM,720244.0,763960.0,-6.1827850579999994,53.61165625,824GIR0018,Fingal
3051,824G001179,Outside Train Station,824,GPBS,ITM,722977.0,753993.0,-6.145427292999999,53.52149985,824GIR0130,Fingal
3098,824G001226,Outside Train Station,824,GPBS,ITM,722699.0,749964.0,-6.15119306,53.48537629,824GIR0016,Fingal
3208,824G001498,Bus Stop at Train Station,824,GPBS,ITM,725295.0,739603.0,-6.11622184,53.39170336,824GIR0024,Fingal
3231,824G001522,Outside Train Station,824,GPBS,ITM,728128.0,739350.0,-6.073757147,53.38875156,,Fingal
3406,824G003874,Howth Junction and Donaghmede Train Station,824,GPBS,ITM,722698.0,739518.0,-6.155277658999999,53.39154935,824G003877,Fingal
3407,824GA00021,Howth Junction and Donaghmede Train Station,824,GPBS,ITM,722653.0,739521.0,-6.1559526689999995,53.39158675,824G003874,Dublin City
3408,824GA00022,Howth Junction and Donaghmede Train Station,824,GPBS,ITM,722719.0,739489.0,-6.154973378999999,53.39128399,824G003874,Fingal
3409,824GA00023,Howth Junction and Donaghmede Train Station,824,GPBS,ITM,722666.0,739521.0,-6.15575733,53.39158373,824G003874,Dublin City
3410,824GA00024,Howth Junction and Donaghmede Train Station,824,GPBS,ITM,722703.0,739497.0,-6.155210687,53.39135956,824G003874,Fingal
3411,824GA00025,Howth Junction and Donaghmede Train Station,824,GPBS,ITM,722716.0,739510.0,-6.155010298,53.39147331,824G003874,Fingal
3412,824GA00026,Howth Junction and Donaghmede Train Station,824,GPBS,ITM,722708.0,739516.0,-6.155128175,53.39152906,824G003874,Fingal
3413,824GA00027,Howth Junction and Donaghmede Train Station,824,GPBS,ITM,722701.0,739544.0,-6.15522248,53.39178219,824G003874,Fingal
3414,824GA00028,Howth Junction and Donaghmede Train Station,824,GPBS,ITM,722690.0,739547.0,-6.155386602999999,53.39181169,824G003874,Fingal
3415,824GA00303,Howth Junction and Donaghmede Train Station,824,GPBS,,,,,,824G003874,Cavan County
3420,824GIR0015,Navan Road Parkway Train Station,824,GRLS,ITM,710076.0,737653.0,-6.345603082999999,53.377576399999995,,Fingal
3421,824GA00206,Navan Road Parkway Train Station,824,GPBS,ITM,710076.0,737640.0,-6.34560761,53.37745962,824GIR0015,Fingal
3422,824GA00207,Navan Road Parkway Train Station,824,GPBS,ITM,710075.0,737654.0,-6.3456177579999995,53.3775856,824GIR0015,Fingal
3423,824GA00208,Navan Road Parkway Train Station,824,GPBS,ITM,710067.0,737671.0,-6.34573202,53.37773998,824GIR0015,Fingal
3424,824GA00209,Navan Road Parkway Train Station,824,GPBS,ITM,710062.0,737664.0,-6.345809571,53.37767813,824GIR0015,Fingal
3425,824GIR0016,Donabate Train Station,824,GRLS,ITM,722688.0,750004.0,-6.151343086000001,53.48573814,,Fingal
3426,824GA00230,Donabate Train Station,824,GPBS,ITM,722694.0,750004.0,-6.15125273,53.48573674,824GIR0016,Fingal
3427,824GA00231,Donabate Train Station,824,GPBS,ITM,722665.0,750018.0,-6.151683983,53.48586925,824GIR0016,Fingal
3428,824GA00232,Donabate Train Station,824,GPBS,ITM,722688.0,750004.0,-6.151343086000001,53.48573814,824GIR0016,Fingal
3429,824GA00233,Donabate Train Station,824,GPBS,ITM,722677.0,750012.0,-6.1515056139999995,53.48581256,824GIR0016,Fingal
3430,824GA00234,Donabate Train Station,824,GPBS,ITM,722687.0,749990.0,-6.151363614,53.48561262,824GIR0016,Fingal
3431,824GA00235,Donabate Train Station,824,GPBS,ITM,722676.0,750003.0,-6.151524189,53.48573195,824GIR0016,Fingal
3432,824GIR0017,Howth Train Station,824,GRLS,ITM,728094.0,739374.0,-6.074258245,53.38897537,,Fingal
3433,824GA00264,Howth Train Station,824,GPBS,ITM,728094.0,739366.0,-6.07426149,53.38890351,824GIR0017,Fingal
3434,824GA00265,Howth Train Station,824,GPBS,ITM,728094.0,739374.0,-6.074258245,53.38897537,824GIR0017,Fingal
3435,824GA00266,Howth Train Station,824,GPBS,ITM,728079.0,739386.0,-6.074478748,53.38908678,824GIR0017,Fingal
3436,824GA00267,Howth Train Station,824,GPBS,ITM,728078.0,739395.0,-6.0744901229999995,53.38916786,824GIR0017,Fingal
3437,824GA00304,Howth Train Station,824,GPBS,ITM,728139.0,739364.0,-6.073586199,53.38887464,824GIR0017,Fingal
3438,824GIR0018,Balbriggan Train Station,824,GRLS,ITM,720268.0,763971.0,-6.182418309,53.61174955,,Fingal
3439,824GA00101,Balbriggan Train Station,824,GPBS,ITM,720225.0,763931.0,-6.183083227000001,53.61140013,824GIR0018,Fingal
3440,824GA00102,Balbriggan Train Station,824,GPBS,ITM,720268.0,763971.0,-6.182418309,53.61174955,824GIR0018,Fingal
3441,824GA00103,Balbriggan Train Station,824,GPBS,ITM,720273.0,763987.0,-6.1823366129999995,53.61189211,824GIR0018,Fingal
3442,824GA00104,Balbriggan Train Station,824,GPBS,ITM,720284.0,763984.0,-6.182171622,53.61186264,824GIR0018,Fingal
3443,824GA00105,Balbriggan Train Station,824,GPBS,ITM,720277.0,763973.0,-6.182281597999999,53.61176545,824GIR0018,Fingal
3444,824GIR0020,Malahide Train Station,824,GRLS,ITM,722453.0,746104.0,-6.15640107,53.45076272,,Fingal
3445,824GA00219,Malahide Train Station,824,GPBS,ITM,722458.0,746105.0,-6.156325446,53.45077054,824GIR0020,Fingal
3446,824GA00220,Malahide Train Station,824,GPBS,ITM,722453.0,746123.0,-6.1563936770000005,53.45093338,824GIR0020,Fingal
3447,824GA00221,Malahide Train Station,824,GPBS,ITM,722432.0,746086.0,-6.15672406,53.45060592,824GIR0020,Fingal
3448,824GA00222,Malahide Train Station,824,GPBS,ITM,722452.0,746107.0,-6.15641495,53.4507899,824GIR0020,Fingal
3449,824GA00223,Malahide Train Station,824,GPBS,ITM,722440.0,746125.0,-6.156588511,53.45095436,824GIR0020,Fingal
3450,824GA00224,Malahide Train Station,824,GPBS,ITM,722447.0,746129.0,-6.156481625,53.45098867,824GIR0020,Fingal
3451,824GA00225,Malahide Train Station,824,GPBS,ITM,722433.0,746131.0,-6.156691507000001,53.45100988,824GIR0020,Fingal
3452,824GIR0023,Skerries Train Station,824,GRLS,ITM,724576.0,759883.0,-6.11898246,53.57402618,,Fingal
3453,824GA00030,Skerries Train Station,824,GPBS,ITM,724581.0,759890.0,-6.118904217000001,53.57408786,824GIR0023,Fingal
3454,824GA00031,Skerries Train Station,824,GPBS,ITM,724575.0,759883.0,-6.1189975510000005,53.57402642,824GIR0023,Fingal
3455,824GA00032,Skerries Train Station,824,GPBS,ITM,724567.0,759883.0,-6.119118274,53.57402831,824GIR0023,Fingal
3456,824GA00033,Skerries Train Station,824,GPBS,ITM,724559.0,759877.0,-6.11924139,53.57397632,824GIR0023,Fingal
3457,824GA00034,Skerries Train Station,824,GPBS,ITM,724562.0,759879.0,-6.119195321,53.57399357,824GIR0023,Fingal
3458,824GIR0024,Sutton Train Station,824,GRLS,ITM,725288.0,739627.0,-6.1163175,53.39192058,,Fingal
3459,824GA00035,Sutton Train Station,824,GPBS,ITM,725288.0,739627.0,-6.1163175,53.39192058,824GIR0024,Fingal
3460,824GA00036,Sutton Train Station,824,GPBS,ITM,725229.0,739640.0,-6.117198874,53.39205134,824GIR0024,Fingal
3461,824GA00037,Sutton Train Station,824,GPBS,ITM,725282.0,739629.0,-6.116406862000001,53.39193997,824GIR0024,Fingal
3462,824GA00038,Sutton Train Station,824,GPBS,ITM,725290.0,739641.0,-6.116281894,53.39204586,824GIR0024,Fingal
3463,824GA00039,Sutton Train Station,824,GPBS,ITM,725293.0,739647.0,-6.116234436,53.39209904,824GIR0024,Fingal
3464,824GA00040,Sutton Train Station,824,GPBS,ITM,725290.0,739635.0,-6.116284274,53.39199197,824GIR0024,Fingal
3465,824GIR0031,Castleknock Train Station,824,GRLS,ITM,708348.0,738064.0,-6.371421718,53.38162553,,Fingal
3466,824GA00130,Castleknock Train Station,824,GPBS,ITM,708348.0,738067.0,-6.37142069,53.38165248,824GIR0031,Fingal
3467,824GA00131,Castleknock Train Station,824,GPBS,ITM,708347.0,738058.0,-6.3714388,53.38157183,824GIR0031,Fingal
3468,824GA00132,Castleknock Train Station,824,GPBS,ITM,708367.0,738062.0,-6.371136942000001,53.38160367,824GIR0031,Fingal
3469,824GA00133,Castleknock Train Station,824,GPBS,ITM,708327.0,738054.0,-6.371740657,53.38154,824GIR0031,Fingal
3470,824GA00134,Castleknock Train Station,824,GPBS,ITM,708347.0,738048.0,-6.371442227999999,53.381482,824GIR0031,Fingal
3471,824GA00439,Castleknock Train Station,824,GPBS,ITM,708347.0,738043.0,-6.371443942000001,53.38143709,824GIR0031,Fingal
3472,824GIR0040,Coolmine Train Station,824,GRLS,ITM,707018.0,737575.0,-6.391569828,53.37750365,,Fingal
3473,824GA00158,Coolmine Train Station,824,GPBS,ITM,707013.0,737572.0,-6.391645959,53.37747772,824GIR0040,Fingal
3474,824GA00159,Coolmine Train Station,824,GPBS,ITM,707051.0,737578.0,-6.391073052,53.37752392,824GIR0040,Fingal
3475,824GA00160,Coolmine Train Station,824,GPBS,ITM,707013.0,737586.0,-6.391641218999999,53.37760348,824GIR0040,Fingal
3476,824GA00161,Coolmine Train Station,824,GPBS,ITM,707030.0,737589.0,-6.391384811,53.37762699,824GIR0040,Fingal
3477,824GA00162,Coolmine Train Station,824,GPBS,ITM,707071.0,737601.0,-6.3907648,53.37772649,824GIR0040,Fingal
3478,824GA00163,Coolmine Train Station,824,GPBS,ITM,707075.0,737589.0,-6.390708772999999,53.37761788,824GIR0040,Fingal
3479,824GIR0041,Clonsilla Train Station,824,GRLS,ITM,704910.0,738142.0,-6.423050569,53.38301985,,Fingal
3480,824GA00152,Clonsilla Train Station,824,GPBS,ITM,704917.0,738137.0,-6.4229470520000005,53.38297354,824GIR0041,Fingal
3481,824GA00153,Clonsilla Train Station,824,GPBS,ITM,704918.0,738126.0,-6.42293568,53.38287453,824GIR0041,Fingal
3482,824GA00154,Clonsilla Train Station,824,GPBS,ITM,704909.0,738142.0,-6.423065594,53.38302005,824GIR0041,Fingal
3483,824GA00155,Clonsilla Train Station,824,GPBS,ITM,704892.0,738144.0,-6.423320359,53.38304139,824GIR0041,Fingal
3484,824GA00156,Clonsilla Train Station,824,GPBS,ITM,704876.0,738151.0,-6.423558439,53.38310745,824GIR0041,Fingal
3485,824GA00157,Clonsilla Train Station,824,GPBS,ITM,704872.0,738137.0,-6.423623186,53.38298248,824GIR0041,Fingal
3486,824GIR0130,Rush and Lusk Train Station,824,GRLS,ITM,723128.0,753929.0,-6.143176572000001,53.52088967,,Fingal
3487,824GA00186,Rush and Lusk Train Station,824,GPBS,ITM,723139.0,753922.0,-6.143013534,53.52082422,824GIR0130,Fingal
3488,824GA00187,Rush and Lusk Train Station,824,GPBS,ITM,723108.0,753931.0,-6.1434772220000005,53.52091231,824GIR0130,Fingal
3489,824GA00188,Rush and Lusk Train Station,824,GPBS,ITM,723127.0,753928.0,-6.143192037,53.52088092,824GIR0130,Fingal
3490,824GA00189,Rush and Lusk Train Station,824,GPBS,ITM,723104.0,753907.0,-6.143546936,53.52069768,824GIR0130,Fingal
3491,824GA00190,Rush and Lusk Train Station,824,GPBS,ITM,723111.0,753906.0,-6.143441827,53.52068706,824GIR0130,Fingal
3492,824GA00192,Rush and Lusk Train Station,824,GPBS,ITM,723095.0,753907.0,-6.143682581,53.52069979,824GIR0130,Fingal
3493,824GIR0138,Portmarnock Train Station,824,GRLS,ITM,722891.0,742491.0,-6.151219919,53.41820845,824G003876,Fingal
3494,824GA00210,Portmarnock Train Station,824,GPBS,ITM,722910.0,742492.0,-6.150933855,53.41821301,824GIR0138,Fingal
3495,824GA00211,Portmarnock Train Station,824,GPBS,ITM,722858.0,742508.0,-6.151709466000001,53.41836883,824GIR0138,Fingal
3496,824GA00212,Portmarnock Train Station,824,GPBS,ITM,722889.0,742492.0,-6.1512496,53.4182179,824GIR0138,Fingal
3497,824GA00213,Portmarnock Train Station,824,GPBS,ITM,722888.0,742408.0,-6.15129737,53.41746364,824GIR0138,Fingal
3498,824GA00214,Portmarnock Train Station,824,GPBS,ITM,722895.0,742400.0,-6.151195241,53.41739015,824GIR0138,Fingal
3499,824GA00215,Portmarnock Train Station,824,GPBS,ITM,722886.0,742392.0,-6.151333675,53.41732039,824GIR0138,Fingal
3500,824GIR0140,Bayside Train Station,824,GRLS,ITM,723906.0,739527.0,-6.13712274,53.39134828,,Fingal
3501,824GA00216,Bayside Train Station,824,GPBS,ITM,723908.0,739521.0,-6.137095042,53.39129392,824GIR0140,Fingal
3502,824GA00217,Bayside Train Station,824,GPBS,ITM,723906.0,739527.0,-6.13712274,53.39134828,824GIR0140,Fingal
3503,824GA00461,Bayside Train Station,824,GPBS,ITM,723905.0,739545.0,-6.137130704,53.39151019,824GIR0140,Fingal
3504,824GA00218,Bayside Train Station,824,GPBS,ITM,723904.0,739553.0,-6.137142592000001,53.39158229,824GIR0140,Fingal
3505,825G000001,Sandycove And Glasthule Train Station,825,GPBS,ITM,724886.0,728070.0,-6.126913673,53.28820942,,Dn Laoghaire-Rathdown
3506,825GA00111,Sandycove And Glasthule Train Station,825,GPBS,ITM,724881.0,728083.0,-6.126983513,53.28832736,825G000001,Dn Laoghaire-Rathdown
3507,825GA00112,Sandycove And Glasthule Train Station,825,GPBS,ITM,724880.0,728077.0,-6.12700086,53.28827371,825G000001,Dn Laoghaire-Rathdown
3508,825GA00113,Sandycove And Glasthule Train Station,825,GPBS,ITM,724861.0,728028.0,-6.127304915,53.28783805,825G000001,Dn Laoghaire-Rathdown
3509,825GA00114,Sandycove And Glasthule Train Station,825,GPBS,ITM,724868.0,728030.0,-6.127199202999999,53.28785437,825G000001,Dn Laoghaire-Rathdown
3530,825G000042,Salthill And Monkstown Train Station,825,GRLS,ITM,723181.0,728819.0,-6.15218084,53.29533595,,Dn Laoghaire-Rathdown
3531,825GA00115,Salthill And Monkstown Train Station,825,GPBS,ITM,723167.0,728806.0,-6.152395772,53.29522243,825G000042,Dn Laoghaire-Rathdown
3532,825GA00116,Salthill And Monkstown Train Station,825,GPBS,ITM,723180.0,728817.0,-6.1521966070000005,53.29531821,825G000042,Dn Laoghaire-Rathdown
3533,825GA00117,Salthill And Monkstown Train Station,825,GPBS,ITM,723179.0,728823.0,-6.1522092729999995,53.29537234,825G000042,Dn Laoghaire-Rathdown
3534,825GA00118,Salthill And Monkstown Train Station,825,GPBS,ITM,723181.0,728830.0,-6.152176573999999,53.29543475,825G000042,Dn Laoghaire-Rathdown
3535,825GA00119,Salthill And Monkstown Train Station,825,GPBS,ITM,723184.0,728828.0,-6.152132373,53.29541609,825G000042,Dn Laoghaire-Rathdown
3620,825G000354,Outside Train Station,825,GPBS,ITM,725649.0,722435.0,-6.117701239,53.23741453,825GIR0022,Dn Laoghaire-Rathdown
3625,825G000360,Killiney Train Station,825,GPBS,ITM,725876.0,724469.0,-6.113499011,53.25563061,,Dn Laoghaire-Rathdown
3838,825G000902,Outside Train Station,825,GPBS,ITM,724877.0,728095.0,-6.127038756,53.28843609,825G000001,Dn Laoghaire-Rathdown
3861,825G000925,Outside Train Station,825,GPBS,ITM,721402.0,729576.0,-6.178563091,53.302546,,Dn Laoghaire-Rathdown
4106,825G003626,Outside Train Station,825,GPBS,ITM,724322.0,728797.0,-6.135083373,53.29487202,825G003635,Dn Laoghaire-Rathdown
4233,825GIR0014,Dalkey Train Station,825,GRLS,ITM,726491.0,726728.0,-6.103389602000001,53.27577507,,Dn Laoghaire-Rathdown
4234,825GA00177,Dalkey Train Station,825,GPBS,ITM,726496.0,726747.0,-6.10330712,53.27594454,825GIR0014,Dn Laoghaire-Rathdown
4235,825GA00178,Dalkey Train Station,825,GPBS,ITM,726490.0,726733.0,-6.103402599,53.27582022,825GIR0014,Dn Laoghaire-Rathdown
4236,825GA00179,Dalkey Train Station,825,GPBS,ITM,726486.0,726711.0,-6.103471289,53.27562357,825GIR0014,Dn Laoghaire-Rathdown
4237,825GA00180,Dalkey Train Station,825,GPBS,ITM,726488.0,726716.0,-6.10343933,53.275668,825GIR0014,Dn Laoghaire-Rathdown
4238,825GA00181,Dalkey Train Station,825,GPBS,ITM,726497.0,726727.0,-6.10330009,53.27576466,825GIR0014,Dn Laoghaire-Rathdown
4239,825GA00358,Dalkey Train Station,825,GPBS,,,,,,825GIR0014,Cavan County
4240,825GIR0021,Killiney Train Station,825,GRLS,ITM,725916.0,724496.0,-6.11288921,53.25586364,,Dn Laoghaire-Rathdown
4241,825GA00268,Killiney Train Station,825,GPBS,ITM,725895.0,724470.0,-6.113214032,53.25563508,825GIR0021,Dn Laoghaire-Rathdown
4242,825GA00269,Killiney Train Station,825,GPBS,ITM,725898.0,724480.0,-6.113165144,53.25572419,825GIR0021,Dn Laoghaire-Rathdown
4243,825GA00270,Killiney Train Station,825,GPBS,ITM,725902.0,724472.0,-6.113108394,53.25565139,825GIR0021,Dn Laoghaire-Rathdown
4244,825GA00271,Killiney Train Station,825,GPBS,ITM,725902.0,724492.0,-6.1131004860000004,53.25583103,825GIR0021,Dn Laoghaire-Rathdown
4245,825GA00272,Killiney Train Station,825,GPBS,ITM,725919.0,724487.0,-6.112847835,53.25578209,825GIR0021,Dn Laoghaire-Rathdown
4246,825GIR0022,Shankill Train Station,825,GRLS,ITM,725688.0,722338.0,-6.117155587,53.23653403,,Dn Laoghaire-Rathdown
4247,825GA00085,Shankill Train Station,825,GPBS,ITM,725664.0,722371.0,-6.117501892999999,53.23683612,825GIR0022,Dn Laoghaire-Rathdown
4248,825GA00086,Shankill Train Station,825,GPBS,ITM,725691.0,722337.0,-6.117111067000001,53.23652434,825GIR0022,Dn Laoghaire-Rathdown
4249,825GA00087,Shankill Train Station,825,GPBS,ITM,725696.0,722349.0,-6.1170314779999995,53.23663094,825GIR0022,Dn Laoghaire-Rathdown
4250,825GA00088,Shankill Train Station,825,GPBS,ITM,725690.0,722353.0,-6.11711973,53.23666829,825GIR0022,Dn Laoghaire-Rathdown
4251,825GA00089,Shankill Train Station,825,GPBS,ITM,725695.0,722355.0,-6.117044084,53.23668507,825GIR0022,Dn Laoghaire-Rathdown
4252,825GA00090,Shankill Train Station,825,GPBS,ITM,725717.0,722313.0,-6.116731275,53.23630261,825GIR0022,Dn Laoghaire-Rathdown
4253,825GIR0029,Seapoint Train Station,825,GRLS,ITM,722288.0,729220.0,-6.165414654,53.2991446,,Dn Laoghaire-Rathdown
4254,825GA00091,Seapoint Train Station,825,GPBS,ITM,722283.0,729207.0,-6.165494627999999,53.29902899,825GIR0029,Dn Laoghaire-Rathdown
4255,825GA00092,Seapoint Train Station,825,GPBS,ITM,722287.0,729218.0,-6.165430418,53.29912687,825GIR0029,Dn Laoghaire-Rathdown
4256,825GA00093,Seapoint Train Station,825,GPBS,ITM,722294.0,729224.0,-6.165323152000001,53.29917915,825GIR0029,Dn Laoghaire-Rathdown
4257,825GA00094,Seapoint Train Station,825,GPBS,ITM,722298.0,729217.0,-6.165265872000001,53.29911535,825GIR0029,Dn Laoghaire-Rathdown
4258,825GA00095,Seapoint Train Station,825,GPBS,ITM,722304.0,729224.0,-6.165173214,53.29917684,825GIR0029,Dn Laoghaire-Rathdown
4259,825GIR0030,Blackrock Train Station,825,GRLS,ITM,721380.0,729604.0,-6.178882278,53.30280254,,Dn Laoghaire-Rathdown
4260,825GA00120,Blackrock Train Station,825,GPBS,ITM,721377.0,729596.0,-6.178930321,53.30273137,825GIR0030,Dn Laoghaire-Rathdown
4261,825GA00121,Blackrock Train Station,825,GPBS,ITM,721380.0,729604.0,-6.178882278,53.30280254,825GIR0030,Dn Laoghaire-Rathdown
4262,825GA00122,Blackrock Train Station,825,GPBS,ITM,721384.0,729608.0,-6.178820768,53.30283756,825GIR0030,Dn Laoghaire-Rathdown
4263,825GA00123,Blackrock Train Station,825,GPBS,ITM,721393.0,729601.0,-6.178688488,53.30277262,825GIR0030,Dn Laoghaire-Rathdown
4264,825GA00124,Blackrock Train Station,825,GPBS,ITM,721396.0,729610.0,-6.178640062,53.30285277,825GIR0030,Dn Laoghaire-Rathdown
4265,825GIR0037,Glenageary Train Station,825,GRLS,ITM,725158.0,727283.0,-6.123146392000001,53.28107631,,Dn Laoghaire-Rathdown
4266,825GA00106,Glenageary Train Station,825,GPBS,ITM,725147.0,727297.0,-6.123305739,53.28120466,825GIR0037,Dn Laoghaire-Rathdown
4267,825GA00107,Glenageary Train Station,825,GPBS,ITM,725169.0,727281.0,-6.122982322,53.28105575,825GIR0037,Dn Laoghaire-Rathdown
4268,825GA00108,Glenageary Train Station,825,GPBS,ITM,725162.0,727289.0,-6.123084082,53.28112926,825GIR0037,Dn Laoghaire-Rathdown
4269,825GA00109,Glenageary Train Station,825,GPBS,ITM,725164.0,727292.0,-6.123052927000001,53.28115573,825GIR0037,Dn Laoghaire-Rathdown
4270,825GA00110,Glenageary Train Station,825,GPBS,ITM,725165.0,727309.0,-6.123031247,53.281308200000005,825GIR0037,Dn Laoghaire-Rathdown
4271,825GIR0039,Booterstown Train Station,825,GRLS,ITM,720270.0,730360.0,-6.195240582,53.30984636,,Dn Laoghaire-Rathdown
4272,825GA00125,Booterstown Train Station,825,GPBS,ITM,720270.0,730356.0,-6.195242098,53.30981043,825GIR0039,Dn Laoghaire-Rathdown
4273,825GA00126,Booterstown Train Station,825,GPBS,ITM,720269.0,730362.0,-6.195254822000001,53.30986455,825GIR0039,Dn Laoghaire-Rathdown
4274,825GA00127,Booterstown Train Station,825,GPBS,ITM,720257.0,730385.0,-6.19542608,53.31007387,825GIR0039,Dn Laoghaire-Rathdown
4275,825GA00128,Booterstown Train Station,825,GPBS,ITM,720269.0,730375.0,-6.195249896,53.30998132,825GIR0039,Dn Laoghaire-Rathdown
4276,825GA00129,Booterstown Train Station,825,GPBS,ITM,720261.0,730396.0,-6.195361921,53.31017177,825GIR0039,Dn Laoghaire-Rathdown
4277,825GIR0124,Dun Laoghaire Train Station,825,GRLS,ITM,724315.0,728786.0,-6.135192622000001,53.29477486,825G000538,Dn Laoghaire-Rathdown
4278,825GA00197,Dun Laoghaire Train Station,825,GPBS,ITM,724373.0,728767.0,-6.134330527,53.2945906,825GIR0124,Dn Laoghaire-Rathdown
4279,825GA00198,Dun Laoghaire Train Station,825,GPBS,ITM,724391.0,728788.0,-6.13405245,53.294775,825GIR0124,Dn Laoghaire-Rathdown
4280,825GA00199,Dun Laoghaire Train Station,825,GPBS,ITM,724325.0,728813.0,-6.135032135,53.29501504,825GIR0124,Dn Laoghaire-Rathdown
4281,825GA00200,Dun Laoghaire Train Station,825,GPBS,ITM,724338.0,728810.0,-6.134838413,53.29498504,825GIR0124,Dn Laoghaire-Rathdown
4282,825GA00246,Dun Laoghaire Train Station,825,GPBS,ITM,724344.0,728827.0,-6.134741807,53.29513633,825GIR0124,Dn Laoghaire-Rathdown
4304,826G000023,Outside Train Station,826,GPBS,ITM,673015.0,713025.0,-6.908128049,53.16270328,826G000245,Kildare County
4357,826G000083,Hazelhatch Train Station Car Park,826,GPBS,ITM,698387.0,731329.0,-6.523181332,53.32306701,,Kildare County
4443,826G000174,Outside Train Station,826,GPBS,ITM,699429.0,736513.0,-6.505918755,53.36944481,826GIR0061,Kildare County
4578,826GIR0054,Newbridge Train Station,826,GRLS,ITM,679620.0,715637.0,-6.808728743,53.1852265,,Kildare County
4579,826GA00012,Newbridge Train Station,826,GPBS,ITM,679633.0,715634.0,-6.80853503,53.1851976,826GIR0054,Kildare County
4580,826GA00013,Newbridge Train Station,826,GPBS,ITM,679619.0,715636.0,-6.80874395,53.18521767,826GIR0054,Kildare County
4581,826GA00014,Newbridge Train Station,826,GPBS,ITM,679621.0,715644.0,-6.808712041000001,53.18528925,826GIR0054,Kildare County
4582,826GA00015,Newbridge Train Station,826,GPBS,ITM,679626.0,715645.0,-6.808636999999999,53.18529749,826GIR0054,Kildare County
4583,826GA00016,Newbridge Train Station,826,GPBS,ITM,679620.0,715650.0,-6.808725505,53.18534331,826GIR0054,Kildare County
4584,826GIR0055,Athy Train Station,826,GRLS,ITM,668693.0,694021.0,-6.97680488,52.99251021,,Kildare County
4585,826GA00001,Athy Train Station,826,GPBS,ITM,668688.0,694031.0,-6.9768772189999995,52.99260071,826GIR0055,Kildare County
4586,826GA00002,Athy Train Station,826,GPBS,ITM,668691.0,694020.0,-6.976834877999999,52.99250148,826GIR0055,Kildare County
4587,826GA00003,Athy Train Station,826,GPBS,ITM,668701.0,694034.0,-6.9766829779999995,52.99262601,826GIR0055,Kildare County
4588,826GA00004,Athy Train Station,826,GPBS,ITM,668702.0,694018.0,-6.976671484,52.9924821,826GIR0055,Kildare County
4589,826GA00005,Athy Train Station,826,GPBS,ITM,668721.0,694017.0,-6.976388738,52.99247068,826GIR0055,Kildare County
4590,826GIR0056,Kilcock Train Station,826,GRLS,ITM,688533.0,739588.0,-6.668735685,53.3990087,,Kildare County
4591,826GA00052,Kilcock Train Station,826,GPBS,ITM,688527.0,739576.0,-6.668829245,53.39890189,826GIR0056,Kildare County
4592,826GA00053,Kilcock Train Station,826,GPBS,ITM,688532.0,739588.0,-6.668750717999999,53.39900887,826GIR0056,Kildare County
4593,826GA00054,Kilcock Train Station,826,GPBS,ITM,688515.0,739594.0,-6.669004587000001,53.39906563,826GIR0056,Kildare County
4594,826GIR0057,Kildare Train Station,826,GRLS,ITM,673012.0,713038.0,-6.908169937,53.162820499999995,,Kildare County
4595,826GA00055,Kildare Train Station,826,GPBS,ITM,673007.0,713028.0,-6.908246974,53.16273133,826GIR0057,Kildare County
4596,826GA00056,Kildare Train Station,826,GPBS,ITM,673010.0,713036.0,-6.908200296,53.162802799999994,826GIR0057,Kildare County
4597,826GA00057,Kildare Train Station,826,GPBS,ITM,672994.0,713039.0,-6.90843883,53.16283195,826GIR0057,Kildare County
4598,826GA00058,Kildare Train Station,826,GPBS,ITM,672990.0,713033.0,-6.9085000029999994,53.16277859,826GIR0057,Kildare County
4599,826GA00059,Kildare Train Station,826,GPBS,ITM,672985.0,713044.0,-6.908572251,53.16287811,826GIR0057,Kildare County
4600,826GIR0058,Maynooth Train Station,826,GRLS,ITM,693774.0,737360.0,-6.590613997,53.37808756,,Kildare County
4601,826GA00017,Maynooth Train Station,826,GPBS,ITM,693782.0,737368.0,-6.590491427000001,53.37815802,826GIR0058,Kildare County
4602,826GA00018,Maynooth Train Station,826,GPBS,ITM,693769.0,737375.0,-6.59068467,53.37822321,826GIR0058,Kildare County
4603,826GA00019,Maynooth Train Station,826,GPBS,ITM,693738.0,737348.0,-6.591158442,53.37798614,826GIR0058,Kildare County
4604,826GA00020,Maynooth Train Station,826,GPBS,ITM,693810.0,737352.0,-6.590075486,53.3780093,826GIR0058,Kildare County
4605,826GA00021,Maynooth Train Station,826,GPBS,ITM,693774.0,737359.0,-6.590614294,53.37807858,826GIR0058,Kildare County
4606,826GA00022,Maynooth Train Station,826,GPBS,ITM,693789.0,737352.0,-6.5903910020000005,53.37801303,826GIR0058,Kildare County
4607,826GA00023,Maynooth Train Station,826,GPBS,ITM,693790.0,737360.0,-6.590373603,53.37808473,826GIR0058,Kildare County
4608,826GA00024,Maynooth Train Station,826,GPBS,ITM,693796.0,737352.0,-6.59028583,53.37801179,826GIR0058,Kildare County
4609,826GIR0059,Monasterevin Train Station,826,GRLS,ITM,662635.0,710956.0,-7.063731382,53.14543284,,Kildare County
4610,826GA00025,Monasterevin Train Station,826,GPBS,ITM,662631.0,710962.0,-7.063789992999999,53.14548723,826GIR0059,Kildare County
4611,826GA00026,Monasterevin Train Station,826,GPBS,ITM,662634.0,710955.0,-7.063746524,53.14542397,826GIR0059,Kildare County
4612,826GA00027,Monasterevin Train Station,826,GPBS,ITM,662634.0,710949.0,-7.063747696,53.14537006,826GIR0059,Kildare County
4613,826GA00028,Monasterevin Train Station,826,GPBS,ITM,662641.0,710961.0,-7.06364073,53.14547707,826GIR0059,Kildare County
4614,826GA00029,Monasterevin Train Station,826,GPBS,ITM,662644.0,710945.0,-7.06359902,53.14533294,826GIR0059,Kildare County
4615,826GIR0060,Sallins And Naas Train Station,826,GRLS,ITM,689120.0,722678.0,-6.664663922000001,53.24698191,,Kildare County
4616,826GA00006,Sallins And Naas Train Station,826,GPBS,ITM,689117.0,722686.0,-6.664706622000001,53.24705429,826GIR0060,Kildare County
4617,826GA00007,Sallins And Naas Train Station,826,GPBS,ITM,689123.0,722662.0,-6.664623461000001,53.24683765,826GIR0060,Kildare County
4618,826GA00008,Sallins And Naas Train Station,826,GPBS,ITM,689118.0,722677.0,-6.66469416,53.24697326,826GIR0060,Kildare County
4619,826GA00009,Sallins And Naas Train Station,826,GPBS,ITM,689136.0,722679.0,-6.664423977,53.24698821,826GIR0060,Kildare County
4620,826GA00010,Sallins And Naas Train Station,826,GPBS,ITM,689139.0,722687.0,-6.664376801,53.24705958,826GIR0060,Kildare County
4621,826GA00011,Sallins And Naas Train Station,826,GPBS,ITM,689145.0,722677.0,-6.664289724,53.24696873,826GIR0060,Kildare County
4622,826GIR0061,Leixlip Louisa Bridge Train Station,826,GRLS,ITM,699373.0,736573.0,-6.506741077999999,53.36999437,,Kildare County
4623,826GA00036,Leixlip Louisa Bridge Train Station,826,GPBS,ITM,699384.0,736570.0,-6.506576787,53.36996535,826GIR0061,Kildare County
4624,826GA00037,Leixlip Louisa Bridge Train Station,826,GPBS,ITM,699396.0,736585.0,-6.506391817999999,53.37009785,826GIR0061,Kildare County
4625,826GA00038,Leixlip Louisa Bridge Train Station,826,GPBS,ITM,699370.0,736549.0,-6.506793683,53.36977932,826GIR0061,Kildare County
4626,826GA00039,Leixlip Louisa Bridge Train Station,826,GPBS,ITM,699333.0,736547.0,-6.5073500929999994,53.36976831,826GIR0061,Kildare County
4627,826GA00040,Leixlip Louisa Bridge Train Station,826,GPBS,ITM,699329.0,736549.0,-6.50740955,53.36978703,826GIR0061,Kildare County
4628,826GA00041,Leixlip Louisa Bridge Train Station,826,GPBS,ITM,699374.0,736572.0,-6.506726371,53.36998520000001,826GIR0061,Kildare County
4629,826GA00042,Leixlip Louisa Bridge Train Station,826,GPBS,,,,,,826GIR0061,Cavan County
4630,826GA00043,Leixlip Louisa Bridge Train Station,826,GPBS,ITM,699372.0,736581.0,-6.506753585,53.37006643,826GIR0061,Kildare County
4631,826GA00044,Leixlip Louisa Bridge Train Station,826,GPBS,ITM,699377.0,736571.0,-6.506681622,53.36997565,826GIR0061,Kildare County
4632,826GIR0062,Leixlip Confey Train Station,826,GRLS,ITM,700782.0,737051.0,-6.485424006000001,53.37402192,,Kildare County
4633,826GA00030,Leixlip Confey Train Station,826,GPBS,ITM,700766.0,737058.0,-6.485662134,53.37408785,826GIR0062,Kildare County
4634,826GA00031,Leixlip Confey Train Station,826,GPBS,ITM,700771.0,737059.0,-6.485586702999999,53.37409588,826GIR0062,Kildare County
4635,826GA00032,Leixlip Confey Train Station,826,GPBS,ITM,700781.0,737051.0,-6.485439027999999,53.37402211,826GIR0062,Kildare County
4636,826GA00033,Leixlip Confey Train Station,826,GPBS,ITM,700777.0,737069.0,-6.48549338,53.37418458,826GIR0062,Kildare County
4637,826GA00034,Leixlip Confey Train Station,826,GPBS,ITM,700780.0,737064.0,-6.485449906,53.37413909,826GIR0062,Kildare County
4638,826GA00035,Leixlip Confey Train Station,826,GPBS,ITM,700782.0,737073.0,-6.485416992,53.37421956,826GIR0062,Kildare County
4639,826GIR0063,Hazelhatch and Celbridge Train Station,826,GRLS,ITM,698328.0,731255.0,-6.524089562,53.32241315,,Kildare County
4640,826GA00045,Hazelhatch and Celbridge Train Station,826,GPBS,ITM,698328.0,731255.0,-6.524089562,53.32241315,826GIR0063,Kildare County
4641,826GA00046,Hazelhatch and Celbridge Train Station,826,GPBS,ITM,698329.0,731260.0,-6.524073007,53.32245788,826GIR0063,Kildare County
4642,826GA00047,Hazelhatch and Celbridge Train Station,826,GPBS,ITM,698344.0,731218.0,-6.5238609620000005,53.32207777,826GIR0063,South Dublin
4643,826GA00048,Hazelhatch and Celbridge Train Station,826,GPBS,ITM,698337.0,731224.0,-6.523964133,53.32213297,826GIR0063,South Dublin
4644,826GA00049,Hazelhatch and Celbridge Train Station,826,GPBS,ITM,698378.0,731276.0,-6.523332817000001,53.32259253,826GIR0063,Kildare County
4645,826GA00050,Hazelhatch and Celbridge Train Station,826,GPBS,ITM,698377.0,731281.0,-6.52334627,53.32263763,826GIR0063,Kildare County
4646,826GA00051,Hazelhatch and Celbridge Train Station,826,GPBS,ITM,698367.0,731284.0,-6.5234953870000005,53.32266644,826GIR0063,Kildare County
4647,826GA00060,Hazelhatch and Celbridge Train Station,826,GPBS,ITM,698341.0,731221.0,-6.523905045,53.32210528,826GIR0063,South Dublin
4711,827G000085,Outside Train Station,827,GPBS,ITM,651144.0,656186.0,-7.244095121,52.65445159,827GIR0064,Kilkenny County
4770,827GIR0064,Kilkenny (MacDonagh) Train Station,827,GRLS,ITM,651183.0,656197.0,-7.2435170520000005,52.65454678,,Kilkenny County
4771,827GA00004,Kilkenny (MacDonagh) Train Station,827,GPBS,ITM,651139.0,656176.0,-7.244170563,52.65436219,827GIR0064,Kilkenny County
4772,827GA00005,Kilkenny (MacDonagh) Train Station,827,GPBS,ITM,651181.0,656197.0,-7.243546609,52.65454696,827GIR0064,Kilkenny County
4773,827GA00006,Kilkenny (MacDonagh) Train Station,827,GPBS,ITM,651186.0,656187.0,-7.243474267000001,52.65445662,827GIR0064,Kilkenny County
4774,827GA00007,Kilkenny (MacDonagh) Train Station,827,GPBS,ITM,651191.0,656176.0,-7.243402081,52.65435729,827GIR0064,Kilkenny County
4775,827GA00008,Kilkenny (MacDonagh) Train Station,827,GPBS,ITM,651193.0,656188.0,-7.243370662999999,52.65446495,827GIR0064,Kilkenny County
4776,827GIR0065,Thomastown Train Station,827,GRLS,ITM,657756.0,641661.0,-7.1489140970000005,52.52325063,,Kilkenny County
4777,827GA00001,Thomastown Train Station,827,GPBS,ITM,657739.0,641642.0,-7.149167877000001,52.52308168,827GIR0065,Kilkenny County
4778,827GA00002,Thomastown Train Station,827,GPBS,ITM,657756.0,641661.0,-7.1489140970000005,52.52325063,827GIR0065,Kilkenny County
4779,827GA00003,Thomastown Train Station,827,GPBS,ITM,657749.0,641644.0,-7.149020189,52.52309859,827GIR0065,Kilkenny County
4826,828G000049,Portarlington Train Station Car Park,828,GPBS,ITM,654744.0,710964.0,-7.181670652999999,53.14637358,,Laois County
4872,828G000105,Outside Train Station,828,GPBS,ITM,646875.0,698654.0,-7.301083143,53.03649815,828GIR0068,Laois County
4949,828GIR0066,Ballybrophy Train Station,828,GRLS,ITM,626711.0,683316.0,-7.602987079,52.90003763,,Laois County
4950,828GA00012,Ballybrophy Train Station,828,GPBS,ITM,626708.0,683330.0,-7.6030305170000005,52.90016361,828GIR0066,Laois County
4951,828GA00013,Ballybrophy Train Station,828,GPBS,ITM,626695.0,683306.0,-7.603225706,52.89994855,828GIR0066,Laois County
4952,828GA00014,Ballybrophy Train Station,828,GPBS,ITM,626714.0,683318.0,-7.602942326,52.90005546,828GIR0066,Laois County
4953,828GA00015,Ballybrophy Train Station,828,GPBS,ITM,626761.0,683353.0,-7.602240889,52.90036768,828GIR0066,Laois County
4954,828GA00016,Ballybrophy Train Station,828,GPBS,ITM,626767.0,683344.0,-7.602152452,52.9002865,828GIR0066,Laois County
4955,828GA00017,Ballybrophy Train Station,828,GPBS,ITM,626769.0,683357.0,-7.6021216560000004,52.90040323,828GIR0066,Laois County
4956,828GA00018,Ballybrophy Train Station,828,GPBS,ITM,626776.0,683347.0,-7.602018437999999,52.90031301,828GIR0066,Laois County
4957,828GA00019,Ballybrophy Train Station,828,GPBS,ITM,626729.0,683331.0,-7.602718314,52.90017155,828GIR0066,Laois County
4958,828GIR0067,Portarlington Train Station,828,GRLS,ITM,654751.0,710943.0,-7.181569614,53.14618415,,Laois County
4959,828GA00001,Portarlington Train Station,828,GPBS,ITM,654747.0,710944.0,-7.18162923,53.14619355,828GIR0067,Laois County
4960,828GA00002,Portarlington Train Station,828,GPBS,ITM,654751.0,710944.0,-7.181569444,53.14619314,828GIR0067,Laois County
4961,828GA00003,Portarlington Train Station,828,GPBS,ITM,654790.0,710926.0,-7.180989605,53.14602738,828GIR0067,Laois County
4962,828GA00004,Portarlington Train Station,828,GPBS,ITM,654788.0,710933.0,-7.181018301,53.14609049,828GIR0067,Laois County
4963,828GA00005,Portarlington Train Station,828,GPBS,ITM,654790.0,710920.0,-7.180990631,53.14597346,828GIR0067,Laois County
4964,828GIR0068,Portlaoise Train Station,828,GRLS,ITM,646850.0,698717.0,-7.301446717999999,53.0370665,,Laois County
4965,828GA00006,Portlaoise Train Station,828,GPBS,ITM,646846.0,698708.0,-7.301507662000001,53.03698597,828GIR0068,Laois County
4966,828GA00007,Portlaoise Train Station,828,GPBS,ITM,646859.0,698686.0,-7.301317039,53.03678713,828GIR0068,Laois County
4967,828GA00008,Portlaoise Train Station,828,GPBS,ITM,646851.0,698718.0,-7.301431663,53.0370754,828GIR0068,Laois County
4968,828GA00009,Portlaoise Train Station,828,GPBS,ITM,646860.0,698698.0,-7.301300386,53.03689488,828GIR0068,Laois County
4969,828GA00010,Portlaoise Train Station,828,GPBS,ITM,646858.0,698691.0,-7.301331221,53.03683215,828GIR0068,Laois County
4970,828GA00011,Portlaoise Train Station,828,GPBS,ITM,646855.0,698699.0,-7.301374787,53.036904299999996,828GIR0068,Laois County
4994,829G000025,Outside Train Station,829,GPBS,ITM,613468.0,774991.0,-7.795927673,53.72440847,829GIR0072,Longford County
5033,829GIR0072,Longford Train Station,829,GRLS,ITM,613458.0,774979.0,-7.796079718,53.72430089,,Longford County
5034,829GA00006,Longford Train Station,829,GPBS,ITM,613455.0,774989.0,-7.79612474,53.72439083,829GIR0072,Longford County
5035,829GA00007,Longford Train Station,829,GPBS,ITM,613458.0,774980.0,-7.796079674,53.72430988,829GIR0072,Longford County
5036,829GA00008,Longford Train Station,829,GPBS,ITM,613468.0,774971.0,-7.795928544,53.72422874,829GIR0072,Longford County
5037,829GA00009,Longford Train Station,829,GPBS,ITM,613473.0,774975.0,-7.795852608,53.72426456,829GIR0072,Longford County
5038,829GA00010,Longford Train Station,829,GPBS,ITM,613476.0,774969.0,-7.7958074129999995,53.72421056,829GIR0072,Longford County
5039,829GIR0073,Edgeworthstown Train Station,829,GRLS,ITM,626223.0,771090.0,-7.602992976,53.68886847,,Longford County
5040,829GA00001,Edgeworthstown Train Station,829,GPBS,ITM,626221.0,771097.0,-7.603022663,53.68893147,829GIR0073,Longford County
5041,829GA00002,Edgeworthstown Train Station,829,GPBS,ITM,626222.0,771091.0,-7.603008031,53.688877500000004,829GIR0073,Longford County
5042,829GA00003,Edgeworthstown Train Station,829,GPBS,ITM,626194.0,771094.0,-7.6034316760000005,53.68890587,829GIR0073,Longford County
5043,829GA00004,Edgeworthstown Train Station,829,GPBS,ITM,626187.0,771079.0,-7.603538918,53.68877143,829GIR0073,Longford County
5044,829GA00005,Edgeworthstown Train Station,829,GPBS,ITM,626209.0,771092.0,-7.603204757,53.68888714,829GIR0073,Longford County
5074,830G000039,Dundalk Train Station,830,GPBS,ITM,704095.0,806927.0,-6.412210321,54.00107671,,Louth County
5075,830G000040,Drogheda Train Station,830,GPBS,ITM,709855.0,774859.0,-6.335862069,53.71183877,,Louth County
5178,830G000154,Outside Train Station,830,GPBS,ITM,704040.0,806814.0,-6.4130875110000005,54.00007277,830GIR0075,Louth County
5194,830GIR0074,Drogheda Train Station,830,GRLS,ITM,709853.0,774869.0,-6.335888806,53.71192901,,Louth County
5195,830GA00001,Drogheda Train Station,830,GPBS,ITM,709853.0,774862.0,-6.335891287999999,53.71186613,830GIR0074,Louth County
5196,830GA00002,Drogheda Train Station,830,GPBS,ITM,709851.0,774870.0,-6.335918734,53.71193842,830GIR0074,Louth County
5197,830GA00003,Drogheda Train Station,830,GPBS,ITM,709899.0,774852.0,-6.3351983270000005,53.71176663,830GIR0074,Louth County
5198,830GA00004,Drogheda Train Station,830,GPBS,ITM,709872.0,774878.0,-6.335597926,53.71200586,830GIR0074,Louth County
5199,830GA00005,Drogheda Train Station,830,GPBS,ITM,709894.0,774868.0,-6.335268359,53.71191139999999,830GIR0074,Louth County
5200,830GA00006,Drogheda Train Station,830,GPBS,ITM,709881.0,774889.0,-6.33545775,53.71210277,830GIR0074,Louth County
5201,830GIR0075,Dundalk Train Station,830,GRLS,ITM,704062.0,806929.0,-6.412712782000001,54.00110133,,Louth County
5202,830GA00007,Dundalk Train Station,830,GPBS,ITM,704079.0,806930.0,-6.412453244,54.00110689,830GIR0075,Louth County
5203,830GA00008,Dundalk Train Station,830,GPBS,ITM,704065.0,806930.0,-6.4126667,54.00110970000001,830GIR0075,Louth County
5204,830GA00009,Dundalk Train Station,830,GPBS,ITM,704055.0,806984.0,-6.412800711,54.00159677,830GIR0075,Louth County
5205,830GA00010,Dundalk Train Station,830,GPBS,ITM,704043.0,806971.0,-6.4129881179999995,54.00148242,830GIR0075,Louth County
5206,830GA00011,Dundalk Train Station,830,GPBS,ITM,704050.0,806912.0,-6.412901553999999,54.00095104,830GIR0075,Louth County
5230,831G000026,Enfield Train Station,831,GPBS,ITM,677473.0,741250.0,-6.834595589,53.41567986,,Meath County
5384,831G000213,Bus Stop at Train Station,831,GPBS,ITM,716241.0,771302.0,-6.240505827000001,53.67850691,831GIR0086,Meath County
5396,831GIR0019,Gormanston Train Station,831,GRLS,ITM,717927.0,766729.0,-6.216733994,53.63705425,,Meath County
5397,831GA00242,Gormanston Train Station,831,GPBS,ITM,717935.0,766733.0,-6.216611567999999,53.63708838,831GIR0019,Meath County
5398,831GA00243,Gormanston Train Station,831,GPBS,ITM,717926.0,766739.0,-6.216745317999999,53.637144299999996,831GIR0019,Meath County
5399,831GA00244,Gormanston Train Station,831,GPBS,ITM,717933.0,766757.0,-6.216632701,53.6373044,831GIR0019,Meath County
5400,831GA00245,Gormanston Train Station,831,GPBS,ITM,717923.0,766755.0,-6.216784597,53.63728869,831GIR0019,Meath County
5401,831GA00020,Gormanston Train Station,831,GPBS,ITM,717926.0,766737.0,-6.216746076000001,53.63712634,831GIR0019,Meath County
5402,831GIR0083,M3 Parkway Train Station,831,GRLS,ITM,701721.0,743807.0,-6.469140347000001,53.434535499999996,,Meath County
5403,831GA00009,M3 Parkway Train Station,831,GPBS,ITM,701709.0,743809.0,-6.469320226000001,53.43455579,831GIR0083,Meath County
5404,831GA00010,M3 Parkway Train Station,831,GPBS,ITM,701717.0,743831.0,-6.469192772,53.43475188,831GIR0083,Meath County
5405,831GA00011,M3 Parkway Train Station,831,GPBS,ITM,701742.0,743818.0,-6.468820877000001,53.43463027,831GIR0083,Meath County
5406,831GA00012,M3 Parkway Train Station,831,GPBS,ITM,701732.0,743811.0,-6.468973575,53.43456932,831GIR0083,Meath County
5407,831GA00013,M3 Parkway Train Station,831,GPBS,ITM,701734.0,743820.0,-6.468940581,53.43464978,831GIR0083,Meath County
5408,831GA00014,M3 Parkway Train Station,831,GPBS,ITM,701720.0,743806.0,-6.469155713999999,53.43452671,831GIR0083,Meath County
5409,831GIR0084,Dunboyne Train Station,831,GRLS,ITM,702064.0,741894.0,-6.4645998570000005,53.41728367,,Meath County
5410,831GA00015,Dunboyne Train Station,831,GPBS,ITM,702069.0,741894.0,-6.46452467,53.41728271,831GIR0084,Meath County
5411,831GA00016,Dunboyne Train Station,831,GPBS,ITM,702062.0,741894.0,-6.464629932999999,53.41728406,831GIR0084,Meath County
5412,831GA00017,Dunboyne Train Station,831,GPBS,ITM,702048.0,741895.0,-6.464840135,53.41729575,831GIR0084,Meath County
5413,831GA00018,Dunboyne Train Station,831,GPBS,ITM,702054.0,741895.0,-6.46474991,53.41729459,831GIR0084,Meath County
5414,831GA00019,Dunboyne Train Station,831,GPBS,ITM,702044.0,741894.0,-6.464900609,53.41728754,831GIR0084,Meath County
5415,831GIR0085,Enfield Train Station,831,GRLS,ITM,677447.0,741245.0,-6.834987839,53.41563875,831G000018,Meath County
5416,831GA00001,Enfield Train Station,831,GPBS,ITM,677461.0,741235.0,-6.834779745,53.41554684,831GIR0085,Meath County
5417,831GA00002,Enfield Train Station,831,GPBS,ITM,677537.0,741330.0,-6.833613403999999,53.41638926,831GIR0085,Meath County
5418,831GA00003,Enfield Train Station,831,GPBS,ITM,677565.0,741350.0,-6.833187377000001,53.41656484,831GIR0085,Meath County
5419,831GIR0086,Laytown Train Station,831,GRLS,ITM,716120.0,771365.0,-6.242312843,53.67909967,,Meath County
5420,831GA00004,Laytown Train Station,831,GPBS,ITM,716133.0,771345.0,-6.242123648,53.67891714,831GIR0086,Meath County
5421,831GA00005,Laytown Train Station,831,GPBS,ITM,716117.0,771366.0,-6.242357856,53.67910932,831GIR0086,Meath County
5422,831GA00006,Laytown Train Station,831,GPBS,ITM,716107.0,771380.0,-6.242503909,53.67923729,831GIR0086,Meath County
5423,831GA00007,Laytown Train Station,831,GPBS,ITM,716110.0,771384.0,-6.242457026,53.67927255,831GIR0086,Meath County
5424,831GA00008,Laytown Train Station,831,GPBS,ITM,716102.0,771375.0,-6.242581424,53.67919349,831GIR0086,Meath County
5457,832G000038,Tullamore Train Station Car Park,832,GPBS,ITM,633364.0,724589.0,-7.499823772999999,53.27058578,,Offaly County
5503,832G000088,Outside Train Station,832,GPBS,ITM,633391.0,724576.0,-7.4994203839999996,53.27046725,832GIR0087,Offaly County
5510,832GIR0087,Tullamore Train Station,832,GRLS,ITM,633354.0,724571.0,-7.499975569,53.27042465,,Offaly County
5511,832GA00001,Tullamore Train Station,832,GPBS,ITM,633359.0,724582.0,-7.499899461,53.27052319,832GIR0087,Offaly County
5512,832GA00002,Tullamore Train Station,832,GPBS,ITM,633353.0,724571.0,-7.499990559,53.27042471,832GIR0087,Offaly County
5513,832GA00003,Tullamore Train Station,832,GPBS,ITM,633318.0,724604.0,-7.500511781,53.27072347,832GIR0087,Offaly County
5514,832GA00004,Tullamore Train Station,832,GPBS,ITM,633324.0,724609.0,-7.500421312,53.27076803,832GIR0087,Offaly County
5515,832GA00005,Tullamore Train Station,832,GPBS,ITM,633315.0,724601.0,-7.500557067999999,53.27069670000001,832GIR0087,Offaly County
5516,832GIR0088,Clara Train Station,832,GRLS,ITM,625544.0,732247.0,-7.616437703,53.33984068,,Offaly County
5517,832GA00006,Clara Train Station,832,GPBS,ITM,625535.0,732247.0,-7.616572842,53.33984111,832GIR0088,Offaly County
5518,832GA00007,Clara Train Station,832,GPBS,ITM,625546.0,732257.0,-7.616406866,53.33993045,832GIR0088,Offaly County
5519,832GA00008,Clara Train Station,832,GPBS,ITM,625545.0,732247.0,-7.616422687999999,53.33984063,832GIR0088,Offaly County
5520,832GA00009,Clara Train Station,832,GPBS,ITM,625538.0,732235.0,-7.616528763,53.33973313,832GIR0088,Offaly County
5529,833G000009,Outside Train Station,833,GPBS,ITM,604298.0,741819.0,-7.935331327999999,53.42646189999999,833G000117,Westmeath County
5604,833G000091,Outside Train Station,833,GPBS,ITM,643347.0,752757.0,-7.346305504,53.52298939,833GIR0108,Westmeath County
5702,833GIR0107,Athlone Train Station,833,GRLS,ITM,604267.0,741878.0,-7.935796962,53.42699237,,Westmeath County
5703,833GA00001,Athlone Train Station,833,GPBS,ITM,604296.0,741847.0,-7.935361039,53.42671355,833GIR0107,Westmeath County
5704,833GA00002,Athlone Train Station,833,GPBS,ITM,604255.0,741878.0,-7.935977519,53.42699247,833GIR0107,Westmeath County
5705,833GA00003,Athlone Train Station,833,GPBS,ITM,604267.0,741858.0,-7.935797233,53.42681264,833GIR0107,Westmeath County
5706,833GA00004,Athlone Train Station,833,GPBS,ITM,604309.0,741847.0,-7.935165437,53.42671344,833GIR0107,Westmeath County
5707,833GA00005,Athlone Train Station,833,GPBS,ITM,604296.0,741848.0,-7.935361025,53.42672253,833GIR0107,Westmeath County
5708,833GA00006,Athlone Train Station,833,GPBS,ITM,604266.0,741882.0,-7.935811954,53.42702833,833GIR0107,Westmeath County
5709,833GA00007,Athlone Train Station,833,GPBS,ITM,604272.0,741892.0,-7.93572154,53.42711815,833GIR0107,Westmeath County
5710,833GA00008,Athlone Train Station,833,GPBS,ITM,604277.0,741897.0,-7.93564624,53.42716304,833GIR0107,Westmeath County
5711,833GIR0108,Mullingar Train Station,833,GRLS,ITM,643386.0,752708.0,-7.345724191,53.52254585,,Westmeath County
5712,833GA00009,Mullingar Train Station,833,GPBS,ITM,643362.0,752743.0,-7.34608125,53.52286235,833GIR0108,Westmeath County
5713,833GA00010,Mullingar Train Station,833,GPBS,ITM,643385.0,752706.0,-7.345739547000001,53.52252796,833GIR0108,Westmeath County
5714,833GA00011,Mullingar Train Station,833,GPBS,ITM,643390.0,752728.0,-7.345661105,53.52272524,833GIR0108,Westmeath County
5715,833GA00012,Mullingar Train Station,833,GPBS,ITM,643371.0,752753.0,-7.345944151,53.52295146,833GIR0108,Westmeath County
5716,833GA00013,Mullingar Train Station,833,GPBS,ITM,643376.0,752762.0,-7.3458675079999995,53.52303193,833GIR0108,Westmeath County
5717,833GA00014,Mullingar Train Station,833,GPBS,ITM,643381.0,752770.0,-7.345791004,53.5231034,833GIR0108,Westmeath County
5718,834G000001,Bridgetown Train Station,834,GRLS,ITM,699132.0,609837.0,-6.548777637000001,52.23134266,,Wexford County
5719,834GA00024,Bridgetown Train Station,834,GPBS,ITM,699098.0,609816.0,-6.549281352,52.23116008,834G000001,Wexford County
5720,834GA00025,Bridgetown Train Station,834,GPBS,ITM,699143.0,609843.0,-6.548614902000001,52.2313946,834G000001,Wexford County
5902,834G000264,Bus Stop at Enniscorthy Train Station,834,GPBS,ITM,697368.0,640189.0,-6.565785325,52.50438866,834GIR0109,Wexford County
5934,834GIR0109,Enniscorthy Train Station,834,GRLS,ITM,697335.0,640190.0,-6.566270952000001,52.50440353,,Wexford County
5935,834GA00019,Enniscorthy Train Station,834,GPBS,ITM,697326.0,640176.0,-6.566407568,52.50427934,834GIR0109,Wexford County
5936,834GA00020,Enniscorthy Train Station,834,GPBS,ITM,697335.0,640190.0,-6.566270952000001,52.50440353,834GIR0109,Wexford County
5937,834GA00021,Enniscorthy Train Station,834,GPBS,ITM,697343.0,640223.0,-6.566143502999999,52.50469862,834GIR0109,Wexford County
5938,834GA00022,Enniscorthy Train Station,834,GPBS,ITM,697335.0,640229.0,-6.566259548,52.50475396,834GIR0109,Wexford County
5939,834GA00023,Enniscorthy Train Station,834,GPBS,ITM,697333.0,640213.0,-6.566293676,52.50461056,834GIR0109,Wexford County
5940,834GIR0110,Gorey Train Station,834,GRLS,ITM,715500.0,659151.0,-6.292211126000001,52.67120779,,Wexford County
5941,834GA00026,Gorey Train Station,834,GPBS,ITM,715503.0,659159.0,-6.292163986,52.67127902,834GIR0110,Wexford County
5942,834GA00027,Gorey Train Station,834,GPBS,ITM,715499.0,659151.0,-6.292225905,52.67120799999999,834GIR0110,Wexford County
5943,834GA00028,Gorey Train Station,834,GPBS,ITM,715511.0,659159.0,-6.292045755,52.67127732,834GIR0110,Wexford County
5944,834GA00029,Gorey Train Station,834,GPBS,ITM,715519.0,659153.0,-6.291929626,52.67122171,834GIR0110,Wexford County
5945,834GA00030,Gorey Train Station,834,GPBS,ITM,715506.0,659153.0,-6.292121752000001,52.67122448,834GIR0110,Wexford County
5946,834GIR0111,Rosslare Strand Train Station,834,GRLS,ITM,709768.0,614578.0,-6.391597047,52.27192426,,Wexford County
5947,834GA00014,Rosslare Strand Train Station,834,GPBS,ITM,709791.0,614563.0,-6.391265057999999,52.27178489,834GIR0111,Wexford County
5948,834GA00015,Rosslare Strand Train Station,834,GPBS,ITM,709768.0,614579.0,-6.391596722,52.27193324,834GIR0111,Wexford County
5949,834GA00016,Rosslare Strand Train Station,834,GPBS,ITM,709765.0,614563.0,-6.391645865,52.27179008,834GIR0111,Wexford County
5950,834GA00017,Rosslare Strand Train Station,834,GPBS,ITM,709772.0,614586.0,-6.391535858999999,52.27199534,834GIR0111,Wexford County
5951,834GA00018,Rosslare Strand Train Station,834,GPBS,ITM,709774.0,614569.0,-6.3915120960000005,52.2718422,834GIR0111,Wexford County
5952,834GA00031,Rosslare Strand Train Station,834,GPBS,ITM,709766.0,614552.0,-6.391634797,52.27169105,834GIR0111,Wexford County
5953,834GIR0112,Wexford Train Station,834,GRLS,ITM,704630.0,622412.0,-6.464418802000001,52.34331625,,Wexford County
5954,834GA00001,Wexford Train Station,834,GPBS,ITM,704626.0,622398.0,-6.464481843,52.34319121,834GIR0112,Wexford County
5955,834GA00002,Wexford Train Station,834,GPBS,ITM,704628.0,622405.0,-6.464450322999999,52.34325373,834GIR0112,Wexford County
5956,834GA00003,Wexford Train Station,834,GPBS,ITM,704604.0,622443.0,-6.464790588,52.34359974,834GIR0112,Wexford County
5957,834GIR0113,Rosslare Europort Train Station,834,GRLS,ITM,713494.0,612365.0,-6.337769234,52.2512848,,Wexford County
5958,834GA00011,Rosslare Europort Train Station,834,GPBS,ITM,713610.0,612313.0,-6.336088561,52.25079367,834GIR0113,Wexford County
5959,834GA00012,Rosslare Europort Train Station,834,GPBS,ITM,713501.0,612357.0,-6.3376694460000005,52.25121148,834GIR0113,Wexford County
5960,834GA00013,Rosslare Europort Train Station,834,GPBS,ITM,713491.0,612368.0,-6.337812144,52.25131238,834GIR0113,Wexford County
5961,834GIR0115,Campile Train Station,834,GRLS,ITM,672407.0,615417.0,-6.938730217000001,52.28565167,,Wexford County
5962,834GA00009,Campile Train Station,834,GPBS,ITM,672372.0,615394.0,-6.939248054,52.28544957,834GIR0115,Wexford County
5963,834GA00010,Campile Train Station,834,GPBS,ITM,672418.0,615426.0,-6.938567087000001,52.2857311,834GIR0115,Wexford County
5964,834GIR0116,Ballycullane Train Station,834,GRLS,ITM,679174.0,615265.0,-6.839603069,52.28335285,,Wexford County
5965,834GA00037,Ballycullane Train Station,834,GPBS,ITM,679139.0,615253.0,-6.8401187420000005,52.28325005,834GIR0116,Wexford County
5966,834GA00038,Ballycullane Train Station,834,GPBS,ITM,679186.0,615266.0,-6.8394269979999995,52.28336011,834GIR0116,Wexford County
5981,835G000013,Outside Train Station,835,GPBS,ITM,726848.0,718815.0,-6.101189376000001,53.20461416,835GIR0123,Wicklow County
6000,835G000033,Outside Train Station,835,GPBS,ITM,729710.0,712139.0,-6.061080528,53.14395997,835GIR0122,Wicklow County
6008,835G000041,Taxi Rank at Train Station,835,GPBS,ITM,726861.0,718764.0,-6.101015151,53.20415297,,Wicklow County
6135,835G000172,Outside Train Station,835,GPBS,ITM,730780.0,694794.0,-6.052140046,52.98790342,,Wicklow County
6298,835GIR0118,Arklow Train Station,835,GRLS,ITM,724102.0,673022.0,-6.1598493770000005,52.79391392,,Wicklow County
6299,835GA00006,Arklow Train Station,835,GPBS,ITM,724117.0,673038.0,-6.159621017999999,52.794054200000005,835GIR0118,Wicklow County
6300,835GA00007,Arklow Train Station,835,GPBS,ITM,724102.0,673028.0,-6.1598471020000005,52.79396782,835GIR0118,Wicklow County
6301,835GA00008,Arklow Train Station,835,GPBS,ITM,724099.0,673017.0,-6.159895731000001,52.79386969,835GIR0118,Wicklow County
6302,835GA00009,Arklow Train Station,835,GPBS,ITM,724109.0,673015.0,-6.159748296,52.79384943,835GIR0118,Wicklow County
6303,835GA00010,Arklow Train Station,835,GPBS,ITM,724104.0,673013.0,-6.159823151,52.79383261,835GIR0118,Wicklow County
6304,835GIR0119,Rathdrum Train Station,835,GRLS,ITM,719243.0,688070.0,-6.226353842000001,52.93019067,,Wicklow County
6305,835GA00017,Rathdrum Train Station,835,GPBS,ITM,719241.0,688090.0,-6.2263762289999995,52.93037078,835GIR0119,Wicklow County
6306,835GA00018,Rathdrum Train Station,835,GPBS,ITM,719238.0,688080.0,-6.226424501,52.93028162,835GIR0119,Wicklow County
6307,835GA00019,Rathdrum Train Station,835,GPBS,ITM,719256.0,688090.0,-6.2261532310000005,52.93036745,835GIR0119,Wicklow County
6308,835GA00021,Rathdrum Train Station,835,GPBS,ITM,719246.0,688090.0,-6.226301896,52.93036967,835GIR0119,Wicklow County
6309,835GA00020,Rathdrum Train Station,835,GPBS,ITM,719257.0,688080.0,-6.226142039,52.930277399999994,835GIR0119,Wicklow County
6310,835GIR0120,Wicklow Train Station,835,GRLS,ITM,730729.0,694808.0,-6.052893513,52.98804161,,Wicklow County
6311,835GA00001,Wicklow Train Station,835,GPBS,ITM,730730.0,694802.0,-6.052881052,52.98798747,835GIR0120,Wicklow County
6312,835GA00002,Wicklow Train Station,835,GPBS,ITM,730728.0,694808.0,-6.052908397,52.98804185,835GIR0120,Wicklow County
6313,835GA00003,Wicklow Train Station,835,GPBS,ITM,730727.0,694812.0,-6.0529216660000005,52.98807802,835GIR0120,Wicklow County
6314,835GA00004,Wicklow Train Station,835,GPBS,ITM,730729.0,694818.0,-6.052889472,52.98813143,835GIR0120,Wicklow County
6315,835GA00005,Wicklow Train Station,835,GPBS,ITM,730736.0,694810.0,-6.052788511,52.98805786,835GIR0120,Wicklow County
6316,835GIR0121,Kilcoole Train Station,835,GRLS,ITM,731164.0,707982.0,-6.041058901,53.10626605,,Wicklow County
6317,835GA00027,Kilcoole Train Station,835,GPBS,ITM,731164.0,707978.0,-6.041060534,53.10623012,835GIR0121,Wicklow County
6318,835GA00028,Kilcoole Train Station,835,GPBS,ITM,731162.0,708011.0,-6.041076912,53.10652702,835GIR0121,Wicklow County
6319,835GIR0122,Greystones Train Station,835,GRLS,ITM,729711.0,712150.0,-6.0610611379999995,53.14405853,,Wicklow County
6320,835GA00022,Greystones Train Station,835,GPBS,ITM,729690.0,712147.0,-6.061376066,53.14403669,835GIR0122,Wicklow County
6321,835GA00023,Greystones Train Station,835,GPBS,ITM,729714.0,712152.0,-6.061015512000001,53.14407576,835GIR0122,Wicklow County
6322,835GA00024,Greystones Train Station,835,GPBS,ITM,729715.0,712170.0,-6.060993289,53.1442372,835GIR0122,Wicklow County
6323,835GA00025,Greystones Train Station,835,GPBS,ITM,729725.0,712169.0,-6.060844305,53.14422578,835GIR0122,Wicklow County
6324,835GA00026,Greystones Train Station,835,GPBS,ITM,729716.0,712161.0,-6.060981992,53.14415611,835GIR0122,Wicklow County
6325,835GIR0123,Bray Train Station,835,GRLS,ITM,726874.0,718808.0,-6.100803192000001,53.20454509,,Wicklow County
6326,835GA00011,Bray Train Station,835,GPBS,ITM,726859.0,718801.0,-6.101030375,53.20448579,835GIR0123,Wicklow County
6327,835GA00012,Bray Train Station,835,GPBS,ITM,726872.0,718808.0,-6.100833112999999,53.20454557,835GIR0123,Wicklow County
6328,835GA00013,Bray Train Station,835,GPBS,ITM,726896.0,718764.0,-6.100491551,53.20414462,835GIR0123,Wicklow County
6329,835GA00014,Bray Train Station,835,GPBS,ITM,726895.0,718776.0,-6.100501743,53.20425265,835GIR0123,Wicklow County
6330,835GA00015,Bray Train Station,835,GPBS,ITM,726914.0,718758.0,-6.100224654,53.20408644,835GIR0123,Wicklow County
6331,835GA00016,Bray Train Station,835,GPBS,ITM,726917.0,718727.0,-6.1001920929999995,53.20380727,835GIR0123,Wicklow County
6544,836G000245,Sixmilebridge Train Station,836,GPBS,ITM,547090.0,665478.0,-8.783497398,52.73779015,836G000168,Clare County
6545,836GA00010,Sixmilebridge Train Station,836,GPBS,ITM,547108.0,665454.0,-8.783227013,52.73757623,836G000245,Clare County
6546,836GA00011,Sixmilebridge Train Station,836,GPBS,ITM,547079.0,665465.0,-8.783658175,52.73767225,836G000245,Clare County
6577,836GIR0003,Ennis Train Station,836,GRLS,ITM,534293.0,676910.0,-8.975264625,52.83912048,,Clare County
6578,836GA00004,Ennis Train Station,836,GPBS,ITM,534284.0,676905.0,-8.975397181,52.83907445,836GIR0003,Clare County
6579,836GA00005,Ennis Train Station,836,GPBS,ITM,534277.0,676921.0,-8.975504285,52.83921738,836GIR0003,Clare County
6580,836GA00006,Ennis Train Station,836,GPBS,ITM,534293.0,676910.0,-8.975264625,52.83912048,836GIR0003,Clare County
6581,836GA00007,Ennis Train Station,836,GPBS,ITM,534304.0,676916.0,-8.97510259,52.83917574,836GIR0003,Clare County
6582,836GA00008,Ennis Train Station,836,GPBS,ITM,534299.0,676904.0,-8.975174376,52.839067299999996,836GIR0003,Clare County
6583,836GA00009,Ennis Train Station,836,GPBS,ITM,534307.0,676902.0,-8.975055251,52.839050300000004,836GIR0003,Clare County
6630,837G000129,Cork Kent Train Station,837,GPBS,ITM,568493.0,572320.0,-8.457850025,51.90213792,,Cork City
6759,837GIR0126,Cork Kent Train Station,837,GRLS,ITM,568477.0,572295.0,-8.458080237999999,51.9019123,,Cork City
6760,837GA00020,Cork Kent Train Station,837,GPBS,ITM,568480.0,572309.0,-8.458037925,51.90203831,837GIR0126,Cork City
6761,837GA00021,Cork Kent Train Station,837,GPBS,ITM,568476.0,572294.0,-8.458094678,51.90190325,837GIR0126,Cork City
6762,837GA00022,Cork Kent Train Station,837,GPBS,ITM,568506.0,572267.0,-8.457656278,51.90166225,837GIR0126,Cork City
6763,837GA00023,Cork Kent Train Station,837,GPBS,ITM,568506.0,572261.0,-8.45765573,51.90160832,837GIR0126,Cork City
6764,837GA00024,Cork Kent Train Station,837,GPBS,ITM,568523.0,572257.0,-8.457408337999999,51.90157332,837GIR0126,Cork City
6765,837GA00025,Cork Kent Train Station,837,GPBS,ITM,568523.0,572250.0,-8.457407699,51.9015104,837GIR0126,Cork City
6766,837GA00026,Cork Kent Train Station,837,GPBS,ITM,568357.0,572294.0,-8.45982388,51.90189651,837GIR0126,Cork City
6767,837GA00027,Cork Kent Train Station,837,GPBS,ITM,568446.0,572242.0,-8.458525852000001,51.90143413,837GIR0126,Cork City
6768,837GA00028,Cork Kent Train Station,837,GPBS,ITM,568399.0,572285.0,-8.459212749,51.90181799,837GIR0126,Cork City
6769,837GA00029,Cork Kent Train Station,837,GPBS,ITM,568455.0,572273.0,-8.45839791,51.9017133,837GIR0126,Cork City
6770,837GA00059,Cork Kent Train Station,837,GPBS,ITM,568399.0,572296.0,-8.459213757,51.90191687,837GIR0126,Cork City
6867,838G000154,Mallow Train Station,838,GPBS,ITM,555178.0,598764.0,-8.654789422,52.13891455,,Cork County
7030,838G000354,Near Train Station,838,GPBS,ITM,555203.0,598506.0,-8.654390247,52.13659763,838GIR0004,Cork County
7198,838G000627,Midleton Train Station,838,GRLS,ITM,587901.0,574370.0,-8.175893509,51.92132473,838G000013,Cork County
7199,838GA00063,Midleton Train Station,838,GPBS,ITM,587905.0,574348.0,-8.175834585,51.92112706,838G000627,Cork County
7200,838GA00064,Midleton Train Station,838,GPBS,ITM,587897.0,574398.0,-8.175952644,51.92157634,838G000627,Cork County
7201,838GA00065,Midleton Train Station,838,GPBS,ITM,587897.0,574365.0,-8.175951484,51.9212797,838G000627,Cork County
7202,838GA00066,Midleton Train Station,838,GPBS,ITM,587895.0,574383.0,-8.175981192,51.92144146,838G000627,Cork County
7203,838GA00067,Midleton Train Station,838,GPBS,ITM,587908.0,574378.0,-8.175792025,51.9213968,838G000627,Cork County
7205,838G000629,Carrigtwohill Train Station,838,GPBS,ITM,582028.0,573837.0,-8.261245719,51.91637505,838G000180,Cork County
7206,838GA00016,Carrigtwohill Train Station,838,GPBS,ITM,581969.0,573834.0,-8.262103192,51.91634618,838G000629,Cork County
7207,838GA00060,Carrigtwohill Train Station,838,GPBS,ITM,581968.0,573845.0,-8.262118304,51.91644502,838G000629,Cork County
7208,838GA00061,Carrigtwohill Train Station,838,GPBS,ITM,582017.0,573855.0,-8.261406556,51.9165365,838G000629,Cork County
7209,838GA00062,Carrigtwohill Train Station,838,GPBS,ITM,582016.0,573863.0,-8.261421509,51.91660838,838G000629,Cork County
7210,838GA00068,Carrigtwohill Train Station,838,GPBS,ITM,582024.0,573838.0,-8.261303916000001,51.91638391,838G000629,Cork County
7211,838GA00069,Carrigtwohill Train Station,838,GPBS,ITM,582006.0,573859.0,-8.261566662,51.9165721,838G000629,Cork County
7225,838GIR0004,Mallow Train Station,838,GRLS,ITM,555143.0,598779.0,-8.655302668,52.13904653,,Cork County
7226,838GA00039,Mallow Train Station,838,GPBS,ITM,555165.0,598766.0,-8.654979585,52.13893147,838GIR0004,Cork County
7227,838GA00040,Mallow Train Station,838,GPBS,ITM,555142.0,598779.0,-8.655317276,52.13904645,838GIR0004,Cork County
7228,838GA00041,Mallow Train Station,838,GPBS,ITM,555114.0,598755.0,-8.655723123,52.13882846,838GIR0004,Cork County
7229,838GA00042,Mallow Train Station,838,GPBS,ITM,555128.0,598751.0,-8.655518087999999,52.13879365,838GIR0004,Cork County
7230,838GA00043,Mallow Train Station,838,GPBS,ITM,555117.0,598760.0,-8.65567996,52.13887365,838GIR0004,Cork County
7231,838GA00044,Mallow Train Station,838,GPBS,ITM,555125.0,598770.0,-8.655564417999999,52.13896418,838GIR0004,Cork County
7232,838GIR0005,Rushbrooke Train Station,838,GRLS,ITM,577768.0,566430.0,-8.322692154,51.84963968,,Cork County
7233,838GA00030,Rushbrooke Train Station,838,GPBS,ITM,577783.0,566411.0,-8.322473216,51.84946949,838GIR0005,Cork County
7234,838GA00031,Rushbrooke Train Station,838,GPBS,ITM,577768.0,566430.0,-8.322692154,51.84963968,838GIR0005,Cork County
7235,838GA00032,Rushbrooke Train Station,838,GPBS,ITM,577780.0,566432.0,-8.322518107999999,51.84965814,838GIR0005,Cork County
7236,838GA00033,Rushbrooke Train Station,838,GPBS,ITM,577812.0,566405.0,-8.322051912000001,51.84941671,838GIR0005,Cork County
7237,838GA00034,Rushbrooke Train Station,838,GPBS,ITM,577752.0,566445.0,-8.322925351,51.84977388,838GIR0005,Cork County
7238,838GIR0006,Charleville Train Station,838,GRLS,ITM,555462.0,621943.0,-8.653695152000001,52.34727093,,Cork County
7239,838GA00010,Charleville Train Station,838,GPBS,ITM,555448.0,621945.0,-8.653900884,52.34728777,838GIR0006,Cork County
7240,838GA00011,Charleville Train Station,838,GPBS,ITM,555459.0,621942.0,-8.653739048,52.347261700000004,838GIR0006,Cork County
7241,838GA00012,Charleville Train Station,838,GPBS,ITM,555476.0,621960.0,-8.653491938,52.34742486,838GIR0006,Cork County
7242,838GA00013,Charleville Train Station,838,GPBS,ITM,555467.0,621961.0,-8.653624157000001,52.34743312,838GIR0006,Cork County
7243,838GA00014,Charleville Train Station,838,GPBS,,,,,,838GIR0006,Cavan County
7244,838GA00015,Charleville Train Station,838,GPBS,ITM,555478.0,621967.0,-8.653463514,52.34748794,838GIR0006,Cork County
7245,838GIR0007,Carrigaloe Train Station,838,GRLS,ITM,577667.0,568571.0,-8.324296457,51.86888121,,Cork County
7246,838GA00006,Carrigaloe Train Station,838,GPBS,ITM,577658.0,568564.0,-8.324426691000001,51.86881793,838GIR0007,Cork County
7247,838GA00007,Carrigaloe Train Station,838,GPBS,ITM,577669.0,568582.0,-8.324268127,51.86898017,838GIR0007,Cork County
7248,838GA00008,Carrigaloe Train Station,838,GPBS,ITM,577691.0,568615.0,-8.323950802,51.86927769,838GIR0007,Cork County
7249,838GA00009,Carrigaloe Train Station,838,GPBS,ITM,577667.0,568571.0,-8.324296457,51.86888121,838GIR0007,Cork County
7250,838GIR0008,Glounthaune Train Station,838,GRLS,ITM,577634.0,573286.0,-8.325081289,51.91126305,,Cork County
7251,838GA00049,Glounthaune Train Station,838,GPBS,ITM,577621.0,573296.0,-8.325270885,51.91135241,838GIR0008,Cork County
7252,838GA00050,Glounthaune Train Station,838,GPBS,ITM,577636.0,573286.0,-8.325052221,51.91126313,838GIR0008,Cork County
7253,838GA00051,Glounthaune Train Station,838,GPBS,ITM,577650.0,573284.0,-8.32484861,51.91124571,838GIR0008,Cork County
7254,838GA00052,Glounthaune Train Station,838,GPBS,ITM,577648.0,573276.0,-8.32487716,51.91117372,838GIR0008,Cork County
7255,838GIR0009,Fota Train Station,838,GRLS,ITM,578072.0,571536.0,-8.318603926,51.89554973,,Cork County
7256,838GA00035,Fota Train Station,838,GPBS,ITM,578106.0,571609.0,-8.318114563,51.89620726,838GIR0009,Cork County
7257,838GA00036,Fota Train Station,838,GPBS,ITM,578081.0,571539.0,-8.318473352,51.89557705,838GIR0009,Cork County
7258,838GA00037,Fota Train Station,838,GPBS,ITM,578079.0,571535.0,-8.318502157000001,51.89554101,838GIR0009,Cork County
7259,838GA00038,Fota Train Station,838,GPBS,ITM,578072.0,571536.0,-8.318603926,51.89554973,838GIR0009,Cork County
7260,838GIR0010,Millstreet Train Station,838,GRLS,ITM,526649.0,592271.0,-9.070098498,52.07751053,,Cork County
7261,838GA00045,Millstreet Train Station,838,GPBS,ITM,526608.0,592244.0,-9.070690717,52.07726244,838GIR0010,Cork County
7262,838GA00046,Millstreet Train Station,838,GPBS,ITM,526628.0,592252.0,-9.070400719,52.07733699,838GIR0010,Cork County
7263,838GA00047,Millstreet Train Station,838,GPBS,ITM,526647.0,592271.0,-9.07012767,52.07751027,838GIR0010,Cork County
7264,838GA00048,Millstreet Train Station,838,GPBS,ITM,526671.0,592280.0,-9.06977954,52.07759433,838GIR0010,Cork County
7265,838GIR0011,Banteer Train Station,838,GRLS,ITM,538446.0,597829.0,-8.899024199,52.12890089,,Cork County
7266,838GA00001,Banteer Train Station,838,GPBS,ITM,538461.0,597832.0,-8.898805689,52.12892952,838GIR0011,Cork County
7267,838GA00002,Banteer Train Station,838,GPBS,ITM,538446.0,597830.0,-8.89902438,52.12890988,838GIR0011,Cork County
7268,838GA00003,Banteer Train Station,838,GPBS,ITM,538444.0,597822.0,-8.899052139,52.12883775,838GIR0011,Cork County
7269,838GA00004,Banteer Train Station,838,GPBS,ITM,538422.0,597828.0,-8.899374502,52.12888923,838GIR0011,Cork County
7270,838GA00005,Banteer Train Station,838,GPBS,ITM,538419.0,597818.0,-8.899416503,52.12879902,838GIR0011,Cork County
7271,838GIR0012,Cobh Train Station,838,GRLS,ITM,579303.0,566341.0,-8.300407013,51.84889866,,Cork County
7272,838GA00017,Cobh Train Station,838,GPBS,ITM,579314.0,566340.0,-8.300247296,51.84889008,838GIR0012,Cork County
7273,838GA00018,Cobh Train Station,838,GPBS,ITM,579284.0,566329.0,-8.300682066,51.84879008,838GIR0012,Cork County
7274,838GA00019,Cobh Train Station,838,GPBS,ITM,579286.0,566321.0,-8.300652559,51.84871825,838GIR0012,Cork County
7275,838GIR0125,Little Island Train Station,838,GRLS,ITM,575559.0,572891.0,-8.355212011,51.90762526,,Cork County
7276,838GA00053,Little Island Train Station,838,GPBS,ITM,575548.0,572884.0,-8.355371379,51.90756185,838GIR0125,Cork County
7277,838GA00054,Little Island Train Station,838,GPBS,ITM,575561.0,572889.0,-8.355182803,51.90760737,838GIR0125,Cork County
7278,838GA00055,Little Island Train Station,838,GPBS,ITM,575582.0,572899.0,-8.354878316,51.90769818,838GIR0125,Cork County
7279,838GA00056,Little Island Train Station,838,GPBS,ITM,575569.0,572909.0,-8.355067956000001,51.9077875,838GIR0125,Cork County
7280,838GA00057,Little Island Train Station,838,GPBS,ITM,575590.0,572908.0,-8.354762688,51.90777943,838GIR0125,Cork County
7281,838GA00058,Little Island Train Station,838,GPBS,ITM,575591.0,572898.0,-8.354747446000001,51.90768958,838GIR0125,Cork County
7528,839GIR0050,Killarney Train Station,839,GRLS,ITM,496997.0,590765.0,-9.502091761,52.05925808,,Kerry County
7529,839GA00017,Killarney Train Station,839,GPBS,ITM,496967.0,590754.0,-9.50252577,52.05915366,839GIR0050,Kerry County
7530,839GA00018,Killarney Train Station,839,GPBS,ITM,497029.0,590805.0,-9.501637333,52.05962346,839GIR0050,Kerry County
7531,839GA00019,Killarney Train Station,839,GPBS,ITM,496997.0,590761.0,-9.502090555,52.05922214,839GIR0050,Kerry County
7532,839GA00020,Killarney Train Station,839,GPBS,ITM,497032.0,590768.0,-9.50158245,52.05929154,839GIR0050,Kerry County
7533,839GA00021,Killarney Train Station,839,GPBS,ITM,497078.0,590747.0,-9.500905555,52.05911139,839GIR0050,Kerry County
7534,839GIR0051,Rathmore Train Station,839,GRLS,ITM,516527.0,593309.0,-9.217985716,52.08540601,,Kerry County
7535,839GA00005,Rathmore Train Station,839,GPBS,ITM,516511.0,593286.0,-9.218213492,52.0851969,839GIR0051,Kerry County
7536,839GA00006,Rathmore Train Station,839,GPBS,ITM,516546.0,593297.0,-9.217705612,52.08530103,839GIR0051,Kerry County
7537,839GA00007,Rathmore Train Station,839,GPBS,ITM,516525.0,593308.0,-9.218014647,52.08539672,839GIR0051,Kerry County
7538,839GA00008,Rathmore Train Station,839,GPBS,ITM,516549.0,593306.0,-9.21766405,52.08538236,839GIR0051,Kerry County
7539,839GA00009,Rathmore Train Station,839,GPBS,ITM,516552.0,593303.0,-9.217619552999999,52.08535585,839GIR0051,Kerry County
7540,839GA00010,Rathmore Train Station,839,GPBS,ITM,516554.0,593311.0,-9.217592333999999,52.08542805,839GIR0051,Kerry County
7541,839GIR0052,Tralee Train Station,839,GRLS,ITM,484056.0,614621.0,-9.69887112,52.27104357,,Kerry County
7542,839GA00001,Tralee Train Station,839,GPBS,ITM,484045.0,614609.0,-9.699028098,52.27093344,839GIR0052,Kerry County
7543,839GA00002,Tralee Train Station,839,GPBS,ITM,484055.0,614620.0,-9.698885422,52.27103438,839GIR0052,Kerry County
7544,839GA00003,Tralee Train Station,839,GPBS,ITM,484150.0,614614.0,-9.697492036,52.27100049,839GIR0052,Kerry County
7545,839GA00004,Tralee Train Station,839,GPBS,ITM,484151.0,614603.0,-9.697473615,52.27090187,839GIR0052,Kerry County
7546,839GIR0053,Farranfore Train Station,839,GRLS,ITM,493838.0,603578.0,-9.552135913999999,52.17379339,,Kerry County
7547,839GA00011,Farranfore Train Station,839,GPBS,ITM,493846.0,603588.0,-9.552022124,52.17388478,839GIR0053,Kerry County
7548,839GA00012,Farranfore Train Station,839,GPBS,ITM,493838.0,603578.0,-9.552135913999999,52.17379339,839GIR0053,Kerry County
7549,839GA00013,Farranfore Train Station,839,GPBS,ITM,493816.0,603583.0,-9.552458999999999,52.17383408,839GIR0053,Kerry County
7550,839GA00014,Farranfore Train Station,839,GPBS,ITM,493803.0,603590.0,-9.552651181,52.17389448,839GIR0053,Kerry County
7551,839GA00016,Farranfore Train Station,839,GPBS,ITM,493807.0,603582.0,-9.552590218999999,52.17382336,839GIR0053,Kerry County
7665,840GIR0127,Limerick Train Station,840,GRLS,ITM,557753.0,656589.0,-8.624468824,52.65883928,840G000089,Limerick City
7666,840GA00004,Limerick Train Station,840,GPBS,ITM,557728.0,656603.0,-8.624840128999999,52.65896316,840GIR0127,Limerick City
7667,840GA00005,Limerick Train Station,840,GPBS,ITM,557747.0,656585.0,-8.624556994,52.65880287,840GIR0127,Limerick City
7668,840GA00006,Limerick Train Station,840,GPBS,ITM,557752.0,656589.0,-8.624483605,52.65883921,840GIR0127,Limerick City
7669,840GA00007,Limerick Train Station,840,GPBS,ITM,557835.0,656546.0,-8.623251332999999,52.6584592,840GIR0127,Limerick City
7670,840GA00008,Limerick Train Station,840,GPBS,ITM,557829.0,656542.0,-8.623339503,52.65842279,840GIR0127,Limerick City
7671,840GA00009,Limerick Train Station,840,GPBS,ITM,557861.0,656515.0,-8.622863085,52.65818261,840GIR0127,Limerick City
7672,840GA00010,Limerick Train Station,840,GPBS,ITM,557859.0,656511.0,-8.622892133999999,52.65814651,840GIR0127,Limerick City
7950,841GIR0071,Castleconnell Train Station,841,GRLS,ITM,566350.0,662571.0,-8.498010462,52.71320447,,Limerick County
7951,841GA00001,Castleconnell Train Station,841,GPBS,ITM,566348.0,662586.0,-8.498041595,52.71333916,841GIR0071,Limerick County
7952,841GA00002,Castleconnell Train Station,841,GPBS,ITM,566348.0,662574.0,-8.498040367,52.71323131,841GIR0071,Limerick County
7953,841GA00003,Castleconnell Train Station,841,GPBS,ITM,566350.0,662568.0,-8.498010155,52.71317751,841GIR0071,Limerick County
7969,842G000035,Thurles Train Station Car Park,842,GPBS,ITM,612062.0,658407.0,-7.821635219,52.67669037,,North Tipperary
7996,842GIR0095,Nenagh Train Station,842,GRLS,ITM,586860.0,678864.0,-8.195125672,52.86052776,,North Tipperary
7997,842GA00033,Nenagh Train Station,842,GPBS,ITM,586864.0,678873.0,-8.195066636,52.86060875,842GIR0095,North Tipperary
7998,842GA00034,Nenagh Train Station,842,GPBS,ITM,586864.0,678866.0,-8.195066354,52.86054584,842GIR0095,North Tipperary
7999,842GA00035,Nenagh Train Station,842,GPBS,ITM,586856.0,678858.0,-8.195184829,52.86047374,842GIR0095,North Tipperary
8000,842GIR0096,Roscrea Train Station,842,GRLS,ITM,613815.0,690005.0,-7.7943772,52.96064095,,North Tipperary
8001,842GA00030,Roscrea Train Station,842,GPBS,ITM,613820.0,689995.0,-7.7943032070000005,52.96055095,842GIR0096,North Tipperary
8002,842GA00031,Roscrea Train Station,842,GPBS,ITM,613814.0,690005.0,-7.794392084,52.96064097,842GIR0096,North Tipperary
8003,842GA00032,Roscrea Train Station,842,GPBS,ITM,613810.0,690015.0,-7.7944511929999996,52.96073095,842GIR0096,North Tipperary
8004,842GIR0097,Templemore Train Station,842,GRLS,ITM,611967.0,670800.0,-7.822588425,52.78807849,,North Tipperary
8005,842GA00011,Templemore Train Station,842,GPBS,ITM,611964.0,670800.0,-7.8226328999999994,52.78807855,842GIR0097,North Tipperary
8006,842GA00012,Templemore Train Station,842,GPBS,ITM,611962.0,670776.0,-7.822663427,52.78786289,842GIR0097,North Tipperary
8007,842GA00013,Templemore Train Station,842,GPBS,ITM,611966.0,670799.0,-7.822603287000001,52.78806952,842GIR0097,North Tipperary
8008,842GA00014,Templemore Train Station,842,GPBS,ITM,611971.0,670783.0,-7.822529747000001,52.78792561,842GIR0097,North Tipperary
8009,842GA00015,Templemore Train Station,842,GPBS,ITM,611974.0,670789.0,-7.822485052999999,52.78797947,842GIR0097,North Tipperary
8010,842GA00016,Templemore Train Station,842,GPBS,ITM,611966.0,670783.0,-7.822603872,52.78792572,842GIR0097,North Tipperary
8011,842GIR0098,Thurles Train Station,842,GRLS,ITM,612032.0,658415.0,-7.822078544,52.67676294,,North Tipperary
8012,842GA00005,Thurles Train Station,842,GPBS,ITM,612023.0,658416.0,-7.822211593,52.67677213,842GIR0098,North Tipperary
8013,842GA00006,Thurles Train Station,842,GPBS,ITM,612057.0,658436.0,-7.821708094,52.67695113,842GIR0098,North Tipperary
8014,842GA00007,Thurles Train Station,842,GPBS,ITM,612032.0,658413.0,-7.822078617000001,52.67674496,842GIR0098,North Tipperary
8015,842GA00008,Thurles Train Station,842,GPBS,ITM,612034.0,658357.0,-7.822051087999999,52.6762416,842GIR0098,North Tipperary
8016,842GA00009,Thurles Train Station,842,GPBS,ITM,612028.0,658357.0,-7.822139811,52.67624173,842GIR0098,North Tipperary
8017,842GA00010,Thurles Train Station,842,GPBS,ITM,612031.0,658365.0,-7.822095157000001,52.67631357,842GIR0098,North Tipperary
8018,842GIR0101,Birdhill Train Station,842,GRLS,ITM,570155.0,668389.0,-8.442228412999999,52.76571735,,North Tipperary
8019,842GA00042,Birdhill Train Station,842,GPBS,ITM,570165.0,668394.0,-8.442080698,52.76576284,842GIR0101,North Tipperary
8020,842GA00017,Birdhill Train Station,842,GPBS,ITM,570155.0,668389.0,-8.442228412999999,52.76571735,842GIR0101,North Tipperary
8021,842GA00018,Birdhill Train Station,842,GPBS,ITM,570165.0,668408.0,-8.442081972,52.76588866,842GIR0101,North Tipperary
8022,842GIR0104,Cloughjordan Train Station,842,GRLS,ITM,598355.0,687294.0,-8.024470551,52.93645108,,North Tipperary
8023,842GA00027,Cloughjordan Train Station,842,GPBS,ITM,598370.0,687308.0,-8.024247486,52.93657695,842GIR0104,North Tipperary
8024,842GA00028,Cloughjordan Train Station,842,GPBS,ITM,598357.0,687299.0,-8.024440825,52.93649602,842GIR0104,North Tipperary
8025,842GA00029,Cloughjordan Train Station,842,GPBS,ITM,598357.0,687290.0,-8.02444078,52.93641513,842GIR0104,North Tipperary
8107,843GIR0099,Tipperary Train Station,843,GRLS,ITM,589016.0,635461.0,-8.16166382,52.47047312,,South Tipperary
8108,843GA00001,Tipperary Train Station,843,GPBS,ITM,589026.0,635464.0,-8.161516738,52.47050028,843GIR0099,South Tipperary
8109,843GA00002,Tipperary Train Station,843,GPBS,ITM,589034.0,635434.0,-8.161398007,52.470230799999996,843GIR0099,South Tipperary
8110,843GA00003,Tipperary Train Station,843,GPBS,ITM,589014.0,635460.0,-8.161693223,52.47046409,843GIR0099,South Tipperary
8111,843GA00004,Tipperary Train Station,843,GPBS,ITM,589007.0,635427.0,-8.161795162,52.47016734,843GIR0099,South Tipperary
8112,843GIR0100,Limerick Junction Train Station,843,GRLS,ITM,586425.0,638864.0,-8.199936872,52.50100164,,South Tipperary
8113,843GA00036,Limerick Junction Train Station,843,GPBS,ITM,586390.0,638816.0,-8.200450397000001,52.50056934,843GIR0100,South Tipperary
8114,843GA00037,Limerick Junction Train Station,843,GPBS,ITM,586423.0,638863.0,-8.199966287,52.50099261,843GIR0100,South Tipperary
8115,843GA00038,Limerick Junction Train Station,843,GPBS,ITM,586491.0,638945.0,-8.198968096,52.50173132,843GIR0100,South Tipperary
8116,843GA00039,Limerick Junction Train Station,843,GPBS,ITM,586476.0,638950.0,-8.199189226,52.50177589,843GIR0100,South Tipperary
8117,843GA00040,Limerick Junction Train Station,843,GPBS,ITM,586506.0,639016.0,-8.198750047,52.50236985,843GIR0100,South Tipperary
8118,843GIR0102,Cahir Train Station,843,GRLS,ITM,605323.0,625130.0,-7.921819758,52.37769928,,South Tipperary
8119,843GIR0103,Carrick on Suir Train Station,843,GRLS,ITM,640578.0,622099.0,-7.404404321,52.34898028,,South Tipperary
8120,843GA00019,Carrick on Suir Train Station,843,GPBS,ITM,640582.0,622091.0,-7.40434658,52.34890808,843GIR0103,South Tipperary
8121,843GA00020,Carrick on Suir Train Station,843,GPBS,ITM,640555.0,622115.0,-7.404739959,52.34912578,843GIR0103,South Tipperary
8122,843GA00021,Carrick on Suir Train Station,843,GPBS,ITM,640560.0,622123.0,-7.404665607999999,52.34919732,843GIR0103,South Tipperary
8123,843GA00041,Carrick on Suir Train Station,843,GPBS,ITM,640569.0,622111.0,-7.404534965,52.3490888,843GIR0103,South Tipperary
8124,843GIR0105,Clonmel Train Station,843,GRLS,ITM,620465.0,623318.0,-7.699538006,52.36105619,,South Tipperary
8125,843GA00022,Clonmel Train Station,843,GPBS,ITM,620478.0,623307.0,-7.699347818,52.36095684,843GIR0105,South Tipperary
8126,843GA00023,Clonmel Train Station,843,GPBS,ITM,620464.0,623317.0,-7.6995527489999995,52.36104724,843GIR0105,South Tipperary
8127,843GA00024,Clonmel Train Station,843,GPBS,ITM,620448.0,623322.0,-7.699787349,52.36109278,843GIR0105,South Tipperary
8128,843GA00025,Clonmel Train Station,843,GPBS,ITM,620452.0,623331.0,-7.699728073999999,52.36117353,843GIR0105,South Tipperary
8129,843GA00026,Clonmel Train Station,843,GPBS,ITM,620434.0,623328.0,-7.699992525,52.36114723,843GIR0105,South Tipperary
8158,844G000081,Waterford Train Station,844,GPBS,ITM,660167.0,613111.0,-7.118517862999999,52.26640231,,Waterford City
8176,844GIR0106,Waterford Train Station,844,GRLS,ITM,660193.0,613110.0,-7.118137175,52.26639048,844G000077,Waterford City
8177,844GA00001,Waterford Train Station,844,GPBS,ITM,660189.0,613102.0,-7.118197196000001,52.26631902,844GIR0106,Waterford City
8178,844GA00002,Waterford Train Station,844,GPBS,ITM,660193.0,613111.0,-7.118136997000001,52.26639947,844GIR0106,Waterford City
8179,844GA00003,Waterford Train Station,844,GPBS,ITM,660235.0,613114.0,-7.117521216,52.26642183,844GIR0106,Waterford City
8180,844GA00004,Waterford Train Station,844,GPBS,ITM,660181.0,613128.0,-7.11830975,52.26655357,844GIR0106,Waterford City
8181,844GA00005,Waterford Train Station,844,GPBS,ITM,660181.0,613121.0,-7.118310997999999,52.26649065,844GIR0106,Waterford City
8182,844GA00006,Waterford Train Station,844,GPBS,ITM,660175.0,613115.0,-7.11839996,52.26643738,844GIR0106,Waterford City
8496,846GIR0044,Galway Train Station,846,GRLS,ITM,530179.0,725324.0,-9.046808656,53.27364567,,Galway City
8497,846GA00015,Galway Train Station,846,GPBS,ITM,530159.0,725342.0,-9.047112408,53.27380477,846GIR0044,Galway City
8498,846GA00016,Galway Train Station,846,GPBS,ITM,530120.0,725315.0,-9.047691087999999,53.27355703,846GIR0044,Galway City
8499,846GA00017,Galway Train Station,846,GPBS,ITM,530201.0,725314.0,-9.046476681,53.2735587,846GIR0044,Galway City
8500,846GA00018,Galway Train Station,846,GPBS,ITM,530178.0,725323.0,-9.046823426,53.27363655,846GIR0044,Galway City
8501,846GA00019,Galway Train Station,846,GPBS,ITM,530235.0,725276.0,-9.045958686,53.27322173,846GIR0044,Galway City
8502,846GA00020,Galway Train Station,846,GPBS,ITM,530284.0,725257.0,-9.045220018,53.27305744,846GIR0044,Galway City
8544,847G000062,Oranmore Train Station,847,class_undefined,ITM,537022.0,725519.0,-8.94426799,53.27625429,847G000506,Galway County
8545,847GA00049,Oranmore Train Station,847,GPBS,ITM,537023.0,725512.0,-8.944251612,53.27619151,847G000062,Galway County
8642,847G000257,Outside Train Station,847,GPBS,ITM,550085.0,728143.0,-8.748839293,53.30122413,,Galway County
8648,847G000270,Gort Train Station Car Park,847,GPBS,ITM,545431.0,702154.0,-8.814217023,53.06722152,,Galway County
8953,847GIR0042,Ardrahan Train Station,847,GRLS,ITM,545508.0,712170.0,-8.814767932,53.157236899999994,,Galway County
8954,847GA00004,Ardrahan Train Station,847,GPBS,ITM,545508.0,712161.0,-8.814766401,53.15715602,847GIR0042,Galway County
8955,847GA00005,Ardrahan Train Station,847,GPBS,ITM,545510.0,712185.0,-8.814740583999999,53.1573719,847GIR0042,Galway County
8956,847GIR0043,Athenry Train Station,847,GRLS,ITM,550106.0,728195.0,-8.748532446,53.30169339,,Galway County
8957,847GA00006,Athenry Train Station,847,GPBS,ITM,550115.0,728174.0,-8.748394137,53.30150553,847GIR0043,Galway County
8958,847GA00007,Athenry Train Station,847,GPBS,ITM,550062.0,728177.0,-8.749189661,53.3015275,847GIR0043,Galway County
8959,847GA00008,Athenry Train Station,847,GPBS,ITM,550118.0,728224.0,-8.74835699,53.30195512,847GIR0043,Galway County
8960,847GA00009,Athenry Train Station,847,GPBS,ITM,550106.0,728194.0,-8.748532289,53.30168441,847GIR0043,Galway County
8961,847GA00010,Athenry Train Station,847,GPBS,ITM,550105.0,728145.0,-8.74853959,53.30124399,847GIR0043,Galway County
8962,847GA00011,Athenry Train Station,847,GPBS,ITM,550091.0,728146.0,-8.74874976,53.30125165,847GIR0043,Galway County
8963,847GIR0045,Gort Train Station,847,GRLS,ITM,545442.0,702162.0,-8.814054268,53.06729453,,Galway County
8964,847GA00030,Gort Train Station,847,GPBS,ITM,545429.0,702149.0,-8.814246014,53.06717638,847GIR0045,Galway County
8965,847GA00031,Gort Train Station,847,GPBS,ITM,545430.0,702184.0,-8.814237027,53.06749101,847GIR0045,Galway County
8966,847GA00032,Gort Train Station,847,GPBS,ITM,545447.0,702182.0,-8.81398306,53.06747477,847GIR0045,Galway County
8967,847GA00033,Gort Train Station,847,GPBS,ITM,545442.0,702162.0,-8.814054268,53.06729453,847GIR0045,Galway County
8968,847GA00035,Gort Train Station,847,GPBS,ITM,545438.0,702174.0,-8.814115978,53.06740196,847GIR0045,Galway County
8969,847GIR0046,Ballinasloe Train Station,847,GRLS,ITM,584027.0,731828.0,-8.23982723,53.33645056,,Galway County
8970,847GA00024,Ballinasloe Train Station,847,GPBS,ITM,584030.0,731838.0,-8.239782691,53.33654052,847GIR0046,Galway County
8971,847GA00025,Ballinasloe Train Station,847,GPBS,ITM,584038.0,731835.0,-8.239662424,53.33651379999999,847GIR0046,Galway County
8972,847GA00026,Ballinasloe Train Station,847,GPBS,ITM,584027.0,731828.0,-8.23982723,53.33645056,847GIR0046,Galway County
8973,847GA00027,Ballinasloe Train Station,847,GPBS,ITM,583944.0,731802.0,-8.241072107,53.33621439,847GIR0046,Galway County
8974,847GA00028,Ballinasloe Train Station,847,GPBS,ITM,583887.0,731777.0,-8.241926651,53.33598799,847GIR0046,Galway County
8975,847GA00029,Ballinasloe Train Station,847,GPBS,ITM,583918.0,731788.0,-8.241461767999999,53.33608779,847GIR0046,Galway County
8976,847GA00034,Ballinasloe Train Station,847,GPBS,ITM,583966.0,731814.0,-8.240742399,53.33632289999999,847GIR0046,Galway County
8977,847GIR0047,Attymon Train Station,847,GRLS,ITM,559625.0,730288.0,-8.606000178,53.3213127,,Galway County
8978,847GA00012,Attymon Train Station,847,GPBS,ITM,559600.0,730281.0,-8.606374496,53.32124788,847GIR0047,Galway County
8979,847GA00013,Attymon Train Station,847,GPBS,ITM,559625.0,730289.0,-8.606000306,53.32132168,847GIR0047,Galway County
8980,847GA00014,Attymon Train Station,847,GPBS,ITM,559643.0,730290.0,-8.605730282,53.32133204,847GIR0047,Galway County
8981,847GIR0048,Woodlawn Train Station,847,GRLS,ITM,568595.0,732651.0,-8.471606695,53.34315597,,Galway County
8982,847GA00001,Woodlawn Train Station,847,GPBS,ITM,568581.0,732647.0,-8.471816528,53.34311919,847GIR0048,Galway County
8983,847GA00002,Woodlawn Train Station,847,GPBS,ITM,568593.0,732650.0,-8.471636628999999,53.34314687,847GIR0048,Galway County
8984,847GA00003,Woodlawn Train Station,847,GPBS,ITM,568606.0,732648.0,-8.471441217999999,53.34312966,847GIR0048,Galway County
8985,847GIR0049,Craughwell Train Station,847,GRLS,ITM,550862.0,719807.0,-8.735896389,53.22638687,,Galway County
8986,847GA00021,Craughwell Train Station,847,GPBS,ITM,550866.0,719801.0,-8.735835566,53.22633332,847GIR0049,Galway County
8987,847GA00022,Craughwell Train Station,847,GPBS,ITM,550862.0,719810.0,-8.735896851,53.22641383,847GIR0049,Galway County
8988,847GA00023,Craughwell Train Station,847,GPBS,ITM,550853.0,719806.0,-8.736031008,53.22637705,847GIR0049,Galway County
9032,848GIR0069,Dromod Train Station,848,GRLS,ITM,605499.0,789965.0,-7.916409699,53.85911327,,Leitrim County
9033,848GA00005,Dromod Train Station,848,GPBS,ITM,605490.0,789978.0,-7.916546275,53.85923019,848GIR0069,Leitrim County
9034,848GA00006,Dromod Train Station,848,GPBS,ITM,605499.0,789965.0,-7.916409699,53.85911327,848GIR0069,Leitrim County
9035,848GA00007,Dromod Train Station,848,GPBS,ITM,605494.0,789960.0,-7.916485793,53.85906839,848GIR0069,Leitrim County
9036,848GA00008,Dromod Train Station,848,GPBS,ITM,605485.0,789956.0,-7.916622672999999,53.85903254,848GIR0069,Leitrim County
9037,848GA00009,Dromod Train Station,848,GPBS,ITM,605484.0,789966.0,-7.9166376960000004,53.85912242,848GIR0069,Leitrim County
9038,848GIR0070,Carrick on Shannon Train Station,848,GRLS,ITM,592988.0,798782.0,-8.106791214,53.93832529,,Roscommon County
9039,848GA00001,Carrick on Shannon Train Station,848,GPBS,ITM,592998.0,798774.0,-8.106638732999999,53.93825353,848GIR0070,Roscommon County
9040,848GA00002,Carrick on Shannon Train Station,848,GPBS,ITM,592984.0,798781.0,-8.10685211,53.93831625,848GIR0070,Roscommon County
9041,848GA00003,Carrick on Shannon Train Station,848,GPBS,ITM,592967.0,798796.0,-8.107111361,53.93845079999999,848GIR0070,Roscommon County
9042,848GA00004,Carrick on Shannon Train Station,848,GPBS,ITM,592991.0,798793.0,-8.106745777,53.93842417,848GIR0070,Roscommon County
9088,849G000048,Outside Train Station,849,GPBS,ITM,533882.0,774999.0,-9.001766362,53.7204667,849GIR0082,Mayo County
9099,849G000059,Outside Train Station,849,GPBS,ITM,549871.0,779347.0,-8.760245998,53.76131609,849GIR0079,Mayo County
9108,849G000068,Outside Train Station,849,GPBS,ITM,515227.0,789486.0,-9.288323456,53.84792204,,Mayo County
9425,849GIR0076,Ballina Train Station,849,GRLS,ITM,524091.0,818397.0,-9.160845578,54.10903292,,Mayo County
9426,849GA00006,Ballina Train Station,849,GPBS,ITM,524101.0,818400.0,-9.160693439,54.10906135,849GIR0076,Mayo County
9427,849GA00005,Ballina Train Station,849,GPBS,ITM,524091.0,818397.0,-9.160845578,54.10903292,849GIR0076,Mayo County
9428,849GA00007,Ballina Train Station,849,GPBS,ITM,524086.0,818415.0,-9.160926541,54.1091939,849GIR0076,Mayo County
9429,849GA00025,Ballina Train Station,849,GPBS,ITM,524080.0,818370.0,-9.16100698,54.10878874,849GIR0076,Mayo County
9430,849GIR0077,Manulla Junction Train Station,849,GRLS,ITM,521504.0,787135.0,-9.192353241000001,53.82778624,,Mayo County
9431,849GA00021,Manulla Junction Train Station,849,GPBS,ITM,521503.0,787135.0,-9.192368427,53.82778609,849GIR0077,Mayo County
9432,849GA00022,Manulla Junction Train Station,849,GPBS,ITM,521503.0,787139.0,-9.192369447999999,53.82782203,849GIR0077,Mayo County
9433,849GA00023,Manulla Junction Train Station,849,GPBS,ITM,521503.0,787132.0,-9.192367662,53.82775914,849GIR0077,Mayo County
9434,849GIR0078,Westport Train Station,849,GRLS,ITM,500516.0,784012.0,-9.510042635,53.79614063,,Mayo County
9435,849GA00001,Westport Train Station,849,GPBS,ITM,500511.0,784020.0,-9.510121082000001,53.79621154,849GIR0078,Mayo County
9436,849GA00002,Westport Train Station,849,GPBS,ITM,500515.0,784012.0,-9.510057808,53.79614044,849GIR0078,Mayo County
9437,849GA00003,Westport Train Station,849,GPBS,ITM,500521.0,784002.0,-9.509963543,53.79605175,849GIR0078,Mayo County
9438,849GA00004,Westport Train Station,849,GPBS,ITM,500513.0,783996.0,-9.51008299,53.79599632,849GIR0078,Mayo County
9439,849GIR0079,Ballyhaunis Train Station,849,GRLS,ITM,549968.0,779383.0,-8.758780889,53.76164889,,Mayo County
9440,849GA00008,Ballyhaunis Train Station,849,GPBS,ITM,549966.0,779387.0,-8.758811866,53.76168464,849GIR0079,Mayo County
9441,849GA00009,Ballyhaunis Train Station,849,GPBS,ITM,549968.0,779383.0,-8.758780889,53.76164889,849GIR0079,Mayo County
9442,849GA00010,Ballyhaunis Train Station,849,GPBS,ITM,549968.0,779380.0,-8.758780403,53.76162193,849GIR0079,Mayo County
9443,849GA00011,Ballyhaunis Train Station,849,GPBS,ITM,549970.0,779367.0,-8.758747969,53.76150531,849GIR0079,Mayo County
9444,849GA00026,Ballyhaunis Train Station,849,GPBS,ITM,549968.0,779376.0,-8.758779755,53.76158599,849GIR0079,Mayo County
9445,849GA00027,Ballyhaunis Train Station,849,GPBS,ITM,549969.0,779360.0,-8.758761998999999,53.76144232,849GIR0079,Mayo County
9446,849GIR0080,Foxford Train Station,849,GRLS,ITM,525463.0,804334.0,-9.136416142,53.982890100000006,,Mayo County
9447,849GA00024,Foxford Train Station,849,GPBS,ITM,525463.0,804335.0,-9.136416387,53.98289908,849GIR0080,Mayo County
9448,849GA00037,Foxford Train Station,849,GPBS,ITM,525458.0,804330.0,-9.136491379,53.98285344,849GIR0080,Mayo County
9449,849GIR0081,Castlebar Train Station,849,GRLS,ITM,515227.0,789433.0,-9.288308834,53.847445900000004,,Mayo County
9450,849GA00012,Castlebar Train Station,849,GPBS,ITM,515235.0,789441.0,-9.288189498,53.84751907,849GIR0081,Mayo County
9451,849GA00013,Castlebar Train Station,849,GPBS,ITM,515227.0,789437.0,-9.288309938,53.84748183,849GIR0081,Mayo County
9452,849GA00014,Castlebar Train Station,849,GPBS,ITM,515224.0,789427.0,-9.288352758,53.8473915,849GIR0081,Mayo County
9453,849GIR0082,Claremorris Train Station,849,GRLS,ITM,533850.0,775023.0,-9.002256246,53.72067829,,Mayo County
9454,849GA00015,Claremorris Train Station,849,GPBS,ITM,533856.0,775017.0,-9.002164072000001,53.72062514,849GIR0082,Mayo County
9455,849GA00016,Claremorris Train Station,849,GPBS,ITM,533851.0,775027.0,-9.002241952,53.72071435,849GIR0082,Mayo County
9456,849GA00017,Claremorris Train Station,849,GPBS,ITM,533842.0,775011.0,-9.002374872,53.72056945,849GIR0082,Mayo County
9457,849GA00018,Claremorris Train Station,849,GPBS,ITM,533820.0,775008.0,-9.002707502,53.72053971,849GIR0082,Mayo County
9458,849GA00019,Claremorris Train Station,849,GPBS,ITM,533833.0,775005.0,-9.002509928,53.7205144,849GIR0082,Mayo County
9459,849GA00020,Claremorris Train Station,849,GPBS,ITM,533831.0,775022.0,-9.002543858,53.72066689,849GIR0082,Mayo County
9525,850GIR0089,Roscommon Train Station,850,GRLS,ITM,587016.0,763855.0,-8.196272927,53.62434843,,Roscommon County
9526,850GA00006,Roscommon Train Station,850,GPBS,ITM,587022.0,763855.0,-8.196182228,53.62434858,850GIR0089,Roscommon County
9527,850GA00007,Roscommon Train Station,850,GPBS,ITM,587013.0,763876.0,-8.196319152000001,53.62453707,850GIR0089,Roscommon County
9528,850GA00008,Roscommon Train Station,850,GPBS,ITM,586996.0,763843.0,-8.196574754,53.62424010000001,850GIR0089,Roscommon County
9529,850GA00009,Roscommon Train Station,850,GPBS,ITM,587018.0,763855.0,-8.196242694,53.62434848,850GIR0089,Roscommon County
9530,850GA00010,Roscommon Train Station,850,GPBS,ITM,587014.0,763859.0,-8.196303326,53.62438433,850GIR0089,Roscommon County
9531,850GA00011,Roscommon Train Station,850,GPBS,ITM,587004.0,763857.0,-8.196454407000001,53.62436611,850GIR0089,Roscommon County
9532,850GA00018,Roscommon Train Station,850,GPBS,ITM,587006.0,763835.0,-8.196423256000001,53.62416846,850GIR0089,Roscommon County
9533,850GIR0090,Boyle Train Station,850,GRLS,ITM,580013.0,802070.0,-8.304610775,53.96753267,,Roscommon County
9534,850GA00001,Boyle Train Station,850,GPBS,ITM,580018.0,802077.0,-8.304535032,53.96759576,850GIR0090,Roscommon County
9535,850GA00002,Boyle Train Station,850,GPBS,ITM,580013.0,802069.0,-8.304610709,53.96752368,850GIR0090,Roscommon County
9536,850GA00003,Boyle Train Station,850,GPBS,ITM,580016.0,802066.0,-8.304564792,53.96749684,850GIR0090,Roscommon County
9537,850GA00004,Boyle Train Station,850,GPBS,ITM,580002.0,802054.0,-8.304777368,53.96738847,850GIR0090,Roscommon County
9538,850GA00005,Boyle Train Station,850,GPBS,ITM,579999.0,802065.0,-8.30482381,53.9674872,850GIR0090,Roscommon County
9539,850GA00019,Boyle Train Station,850,GPBS,ITM,580009.0,802075.0,-8.304672063,53.96757744,850GIR0090,Roscommon County
9540,850GIR0091,Castlerea Train Station,850,GRLS,ITM,567973.0,779212.0,-8.485714757,53.76152957,,Roscommon County
9541,850GA00012,Castlerea Train Station,850,GPBS,ITM,567975.0,779217.0,-8.485684945,53.76157462,850GIR0091,Roscommon County
9542,850GA00013,Castlerea Train Station,850,GPBS,ITM,567973.0,779212.0,-8.485714757,53.76152957,850GIR0091,Roscommon County
9543,850GA00014,Castlerea Train Station,850,GPBS,ITM,567947.0,779202.0,-8.486108015,53.76143811,850GIR0091,Roscommon County
9544,850GA00015,Castlerea Train Station,850,GPBS,ITM,567969.0,779208.0,-8.485775002999999,53.76149338,850GIR0091,Roscommon County
9545,850GA00016,Castlerea Train Station,850,GPBS,ITM,567964.0,779203.0,-8.485850311,53.76144814,850GIR0091,Roscommon County
9546,850GA00017,Castlerea Train Station,850,GPBS,ITM,567977.0,779196.0,-8.485652437999999,53.76138604,850GIR0091,Roscommon County
9693,851GIR0092,Sligo Train Station,851,GRLS,ITM,568610.0,836020.0,-8.481918164,54.2720223,,Sligo County
9694,851GA00001,Sligo Train Station,851,GPBS,ITM,568577.0,836038.0,-8.482426669,54.27218201,851GIR0092,Sligo County
9695,851GA00002,Sligo Train Station,851,GPBS,ITM,568576.0,836044.0,-8.482442651,54.27223586,851GIR0092,Sligo County
9696,851GA00003,Sligo Train Station,851,GPBS,ITM,568606.0,836015.0,-8.481979048,54.27197713,851GIR0092,Sligo County
9697,851GA00004,Sligo Train Station,851,GPBS,ITM,568610.0,836020.0,-8.481918164,54.2720223,851GIR0092,Sligo County
9698,851GIR0093,Ballymote Train Station,851,GRLS,ITM,565928.0,815580.0,-8.52077926,54.08819127,,Sligo County
9699,851GA00005,Ballymote Train Station,851,GPBS,ITM,565928.0,815593.0,-8.520780723,54.08830808,851GIR0093,Sligo County
9700,851GA00006,Ballymote Train Station,851,GPBS,ITM,565928.0,815580.0,-8.52077926,54.08819127,851GIR0093,Sligo County
9701,851GA00007,Ballymote Train Station,851,GPBS,ITM,565923.0,815579.0,-8.520855568,54.08818196,851GIR0093,Sligo County
9702,851GIR0094,Collooney Train Station,851,GRLS,ITM,567699.0,826510.0,-8.494880644,54.18651578,,Sligo County
9703,851GA00008,Collooney Train Station,851,GPBS,ITM,567694.0,826499.0,-8.494956065,54.18641663,851GIR0094,Sligo County
9704,851GA00009,Collooney Train Station,851,GPBS,ITM,567700.0,826510.0,-8.494865322999999,54.18651584,851GIR0094,Sligo County
